{"type":"FeatureCollection","name":"fields-georgia","features":[{"type":"Feature","properties":{"field_id":"GE-F-0","cell_id":"GE-235","crop":"Peach","is_cell":false,"score":5.7,"area_ha":1.1,"region":"Kakheti","municipality":"Kvareli"},"geometry":{"type":"MultiPolygon","coordinates":[[[[45.764743,41.854962],[45.765785,41.855403],[45.766378,41.854463],[45.765351,41.854014],[45.764743,41.854962]]]]}},{"type":"Feature","properties":{"field_id":"GE-F-1","cell_id":"GE-235","crop":null,"is_cell":true,"score":8.3,"area_ha":10007,"region":"Kakheti","municipality":"Kvareli"},"geometry":{"type":"MultiPolygon","coordinates":[[[[45.714373,41.898405],[45.834917,41.897592],[45.833747,41.807533],[45.713372,41.808343],[45.714373,41.898405]]]]}},{"type":"Feature","properties":{"field_id":"GE-F-2","cell_id":"GE-235","crop":"Apple","is_cell":false,"score":5,"area_ha":0.8,"region":"Kakheti","municipality":"Kvareli"},"geometry":{"type":"MultiPolygon","coordinates":[[[[45.762083,41.856588],[45.763132,41.857029],[45.763606,41.856413],[45.762597,41.855943],[45.762083,41.856588]]]]}},{"type":"Feature","properties":{"field_id":"GE-F-3","cell_id":"GE-235","crop":"Peach","is_cell":false,"score":3.6,"area_ha":0.3,"region":"Kakheti","municipality":"Kvareli"},"geometry":{"type":"MultiPolygon","coordinates":[[[[45.745604,41.871457],[45.746366,41.872088],[45.746685,41.871848],[45.745892,41.871223],[45.745604,41.871457]]]]}},{"type":"Feature","properties":{"field_id":"GE-F-4","cell_id":"GE-235","crop":"Peach","is_cell":false,"score":6.2,"area_ha":1,"region":"Kakheti","municipality":"Kvareli"},"geometry":{"type":"MultiPolygon","coordinates":[[[[45.751424,41.867899],[45.752381,41.86856],[45.752828,41.867782],[45.751906,41.867115],[45.751424,41.867899]]]]}},{"type":"Feature","properties":{"field_id":"GE-F-5","cell_id":"GE-235","crop":"Peach","is_cell":false,"score":4.3,"area_ha":1,"region":"Kakheti","municipality":"Kvareli"},"geometry":{"type":"MultiPolygon","coordinates":[[[[45.752735,41.869861],[45.753952,41.870609],[45.754044,41.87036],[45.754306,41.869876],[45.753292,41.869212],[45.752735,41.869861]]]]}},{"type":"Feature","properties":{"field_id":"GE-F-6","cell_id":"GE-235","crop":"Apple","is_cell":false,"score":8.9,"area_ha":0.4,"region":"Kakheti","municipality":"Kvareli"},"geometry":{"type":"MultiPolygon","coordinates":[[[[45.763331,41.871238],[45.764099,41.871782],[45.764425,41.871525],[45.763442,41.870928],[45.763286,41.871053],[45.763403,41.871146],[45.763331,41.871238]]]]}},{"type":"Feature","properties":{"field_id":"GE-F-7","cell_id":"GE-235","crop":"Peach","is_cell":false,"score":3,"area_ha":0.2,"region":"Kakheti","municipality":"Kvareli"},"geometry":{"type":"MultiPolygon","coordinates":[[[[45.7674,41.859165],[45.76825,41.859605],[45.768407,41.859444],[45.767549,41.858951],[45.7674,41.859165]]]]}},{"type":"Feature","properties":{"field_id":"GE-F-8","cell_id":"GE-235","crop":"Apple","is_cell":false,"score":4,"area_ha":1.2,"region":"Kakheti","municipality":"Kvareli"},"geometry":{"type":"MultiPolygon","coordinates":[[[[45.768182,41.85611],[45.769433,41.856791],[45.770256,41.856222],[45.768546,41.855509],[45.768182,41.85611]]]]}},{"type":"Feature","properties":{"field_id":"GE-F-9","cell_id":"GE-235","crop":"Peach","is_cell":false,"score":5.8,"area_ha":0.6,"region":"Kakheti","municipality":"Kvareli"},"geometry":{"type":"MultiPolygon","coordinates":[[[[45.751512,41.876417],[45.752038,41.875995],[45.751118,41.875405],[45.750585,41.875806],[45.751512,41.876417]]]]}},{"type":"Feature","properties":{"field_id":"GE-F-10","cell_id":"GE-235","crop":"Apple","is_cell":false,"score":2.7,"area_ha":0.4,"region":"Kakheti","municipality":"Kvareli"},"geometry":{"type":"MultiPolygon","coordinates":[[[[45.762007,41.85255],[45.763089,41.853026],[45.763293,41.852696],[45.762231,41.852221],[45.762007,41.85255]]]]}},{"type":"Feature","properties":{"field_id":"GE-F-11","cell_id":"GE-235","crop":"Peach","is_cell":false,"score":5.7,"area_ha":0.3,"region":"Kakheti","municipality":"Kvareli"},"geometry":{"type":"MultiPolygon","coordinates":[[[[45.770173,41.853152],[45.771255,41.853618],[45.771441,41.853355],[45.770371,41.852888],[45.770173,41.853152]]]]}},{"type":"Feature","properties":{"field_id":"GE-F-12","cell_id":"GE-235","crop":"Peach","is_cell":false,"score":1.9,"area_ha":0.6,"region":"Kakheti","municipality":"Kvareli"},"geometry":{"type":"MultiPolygon","coordinates":[[[[45.768814,41.851222],[45.769872,41.851716],[45.770148,41.851215],[45.769109,41.850735],[45.768814,41.851222]]]]}},{"type":"Feature","properties":{"field_id":"GE-F-13","cell_id":"GE-235","crop":"Apple","is_cell":false,"score":1.8,"area_ha":0.7,"region":"Kakheti","municipality":"Kvareli"},"geometry":{"type":"MultiPolygon","coordinates":[[[[45.772918,41.859299],[45.773922,41.859853],[45.774703,41.859574],[45.773741,41.858987],[45.772918,41.859299]]]]}},{"type":"Feature","properties":{"field_id":"GE-F-14","cell_id":"GE-235","crop":"Apple","is_cell":false,"score":6.6,"area_ha":0.6,"region":"Kakheti","municipality":"Kvareli"},"geometry":{"type":"MultiPolygon","coordinates":[[[[45.778938,41.860814],[45.779559,41.860624],[45.778591,41.859997],[45.777904,41.860281],[45.778938,41.860814]]]]}},{"type":"Feature","properties":{"field_id":"GE-F-15","cell_id":"GE-235","crop":"Apple","is_cell":false,"score":3.1,"area_ha":0.7,"region":"Kakheti","municipality":"Kvareli"},"geometry":{"type":"MultiPolygon","coordinates":[[[[45.781606,41.860709],[45.782416,41.860375],[45.781402,41.859798],[45.780629,41.860138],[45.781606,41.860709]]]]}},{"type":"Feature","properties":{"field_id":"GE-F-16","cell_id":"GE-235","crop":"Peach","is_cell":false,"score":7.1,"area_ha":0.6,"region":"Kakheti","municipality":"Kvareli"},"geometry":{"type":"MultiPolygon","coordinates":[[[[45.764851,41.852645],[45.765964,41.852986],[45.766326,41.852566],[45.76522,41.852099],[45.764851,41.852645]]]]}},{"type":"Feature","properties":{"field_id":"GE-F-17","cell_id":"GE-235","crop":"Peach","is_cell":false,"score":1.5,"area_ha":0.3,"region":"Kakheti","municipality":"Kvareli"},"geometry":{"type":"MultiPolygon","coordinates":[[[[45.771404,41.846632],[45.77114,41.846906],[45.772067,41.847565],[45.772242,41.847393],[45.771404,41.846632]]]]}},{"type":"Feature","properties":{"field_id":"GE-F-18","cell_id":"GE-235","crop":"Apple","is_cell":false,"score":9.1,"area_ha":2.1,"region":"Kakheti","municipality":"Kvareli"},"geometry":{"type":"MultiPolygon","coordinates":[[[[45.776719,41.856912],[45.777475,41.857393],[45.779858,41.856374],[45.778909,41.855832],[45.77655,41.856803],[45.776719,41.856912]]]]}},{"type":"Feature","properties":{"field_id":"GE-F-19","cell_id":"GE-235","crop":"Apple","is_cell":false,"score":3.7,"area_ha":0.7,"region":"Kakheti","municipality":"Kvareli"},"geometry":{"type":"MultiPolygon","coordinates":[[[[45.764816,41.850428],[45.765193,41.849889],[45.764141,41.849433],[45.763777,41.84999],[45.764816,41.850428]]]]}},{"type":"Feature","properties":{"field_id":"GE-F-20","cell_id":"GE-235","crop":"Peach","is_cell":false,"score":8.1,"area_ha":1.1,"region":"Kakheti","municipality":"Kvareli"},"geometry":{"type":"MultiPolygon","coordinates":[[[[45.783107,41.821683],[45.783866,41.822045],[45.784732,41.820956],[45.783992,41.820574],[45.783107,41.821683]]]]}},{"type":"Feature","properties":{"field_id":"GE-F-21","cell_id":"GE-235","crop":"Peach","is_cell":false,"score":5.3,"area_ha":0.8,"region":"Kakheti","municipality":"Kvareli"},"geometry":{"type":"MultiPolygon","coordinates":[[[[45.78766,41.823681],[45.788252,41.823103],[45.787235,41.822642],[45.78669,41.823242],[45.78766,41.823681]]]]}},{"type":"Feature","properties":{"field_id":"GE-F-22","cell_id":"GE-235","crop":"Peach","is_cell":false,"score":5,"area_ha":0.6,"region":"Kakheti","municipality":"Kvareli"},"geometry":{"type":"MultiPolygon","coordinates":[[[[45.801768,41.824576],[45.801933,41.824091],[45.800755,41.82384],[45.800613,41.824357],[45.801768,41.824576]]]]}},{"type":"Feature","properties":{"field_id":"GE-F-23","cell_id":"GE-235","crop":"Peach","is_cell":false,"score":7.9,"area_ha":1.5,"region":"Kakheti","municipality":"Kvareli"},"geometry":{"type":"MultiPolygon","coordinates":[[[[45.813542,41.816891],[45.813499,41.816914],[45.812983,41.817943],[45.814448,41.81838],[45.814644,41.817887],[45.814464,41.817807],[45.81449,41.817702],[45.81467,41.817194],[45.813542,41.816891]]]]}},{"type":"Feature","properties":{"field_id":"GE-F-24","cell_id":"GE-235","crop":"Peach","is_cell":false,"score":9.2,"area_ha":0.5,"region":"Kakheti","municipality":"Kvareli"},"geometry":{"type":"MultiPolygon","coordinates":[[[[45.826195,41.826779],[45.826434,41.826349],[45.825347,41.825923],[45.825064,41.826344],[45.826195,41.826779]]]]}},{"type":"Feature","properties":{"field_id":"GE-F-25","cell_id":"GE-235","crop":"Peach","is_cell":false,"score":9.7,"area_ha":0.8,"region":"Kakheti","municipality":"Kvareli"},"geometry":{"type":"MultiPolygon","coordinates":[[[[45.831885,41.826042],[45.832024,41.825628],[45.830195,41.82528],[45.830068,41.825729],[45.831885,41.826042]]]]}},{"type":"Feature","properties":{"field_id":"GE-F-26","cell_id":"GE-235","crop":"Peach","is_cell":false,"score":9,"area_ha":0.6,"region":"Kakheti","municipality":"Kvareli"},"geometry":{"type":"MultiPolygon","coordinates":[[[[45.83114,41.818351],[45.831441,41.817883],[45.830405,41.817454],[45.830112,41.817942],[45.83114,41.818351]]]]}},{"type":"Feature","properties":{"field_id":"GE-F-27","cell_id":"GE-235","crop":"Peach","is_cell":false,"score":6.4,"area_ha":1.6,"region":"Kakheti","municipality":"Kvareli"},"geometry":{"type":"MultiPolygon","coordinates":[[[[45.829473,41.810671],[45.830005,41.810615],[45.830289,41.810627],[45.830622,41.810508],[45.830586,41.809534],[45.830114,41.809397],[45.830041,41.809462],[45.829949,41.809567],[45.829915,41.809643],[45.829865,41.809667],[45.829798,41.809653],[45.829646,41.809619],[45.829588,41.80962],[45.829514,41.809588],[45.829496,41.809469],[45.829247,41.809421],[45.829216,41.809462],[45.829053,41.809446],[45.829041,41.809408],[45.828912,41.809389],[45.82874,41.809361],[45.828409,41.80959],[45.82815,41.809697],[45.828084,41.80977],[45.829226,41.80991],[45.82944,41.809952],[45.829515,41.810001],[45.829473,41.810671]]]]}},{"type":"Feature","properties":{"field_id":"GE-F-28","cell_id":"GE-235","crop":"Apple","is_cell":false,"score":8.6,"area_ha":0.5,"region":"Kakheti","municipality":"Kvareli"},"geometry":{"type":"MultiPolygon","coordinates":[[[[45.757356,41.838227],[45.758027,41.837419],[45.757628,41.837195],[45.756872,41.838114],[45.757021,41.838203],[45.757228,41.838248],[45.757356,41.838227]]]]}},{"type":"Feature","properties":{"field_id":"GE-F-29","cell_id":"GE-235","crop":"Apple","is_cell":false,"score":2.2,"area_ha":0.8,"region":"Kakheti","municipality":"Kvareli"},"geometry":{"type":"MultiPolygon","coordinates":[[[[45.749526,41.839591],[45.750425,41.83856],[45.749822,41.838299],[45.748951,41.839321],[45.749526,41.839591]]]]}},{"type":"Feature","properties":{"field_id":"GE-F-30","cell_id":"GE-235","crop":"Apple","is_cell":false,"score":8.4,"area_ha":0.3,"region":"Kakheti","municipality":"Kvareli"},"geometry":{"type":"MultiPolygon","coordinates":[[[[45.744812,41.83954],[45.745515,41.83877],[45.745202,41.838606],[45.744523,41.839396],[45.744812,41.83954]]]]}},{"type":"Feature","properties":{"field_id":"GE-F-31","cell_id":"GE-235","crop":"Peach","is_cell":false,"score":9.1,"area_ha":0.7,"region":"Kakheti","municipality":"Kvareli"},"geometry":{"type":"MultiPolygon","coordinates":[[[[45.740736,41.833335],[45.741135,41.832855],[45.740048,41.832434],[45.739622,41.832952],[45.740659,41.833374],[45.740736,41.833335]]]]}},{"type":"Feature","properties":{"field_id":"GE-F-32","cell_id":"GE-235","crop":"Peach","is_cell":false,"score":6.8,"area_ha":0.4,"region":"Kakheti","municipality":"Kvareli"},"geometry":{"type":"MultiPolygon","coordinates":[[[[45.732337,41.83327],[45.733486,41.833711],[45.733724,41.833369],[45.732579,41.832945],[45.732337,41.83327]]]]}},{"type":"Feature","properties":{"field_id":"GE-F-33","cell_id":"GE-235","crop":"Peach","is_cell":false,"score":7.8,"area_ha":0.7,"region":"Kakheti","municipality":"Kvareli"},"geometry":{"type":"MultiPolygon","coordinates":[[[[45.724937,41.830616],[45.726048,41.830769],[45.726258,41.83013],[45.725198,41.829942],[45.724926,41.830342],[45.724896,41.830447],[45.724937,41.830616]]]]}},{"type":"Feature","properties":{"field_id":"GE-F-34","cell_id":"GE-235","crop":"Apple","is_cell":false,"score":5.1,"area_ha":0.6,"region":"Kakheti","municipality":"Kvareli"},"geometry":{"type":"MultiPolygon","coordinates":[[[[45.717523,41.831626],[45.718288,41.830748],[45.717705,41.830484],[45.716972,41.831414],[45.717523,41.831626]]]]}},{"type":"Feature","properties":{"field_id":"GE-F-35","cell_id":"GE-235","crop":"Apple","is_cell":false,"score":5.5,"area_ha":0.3,"region":"Kakheti","municipality":"Kvareli"},"geometry":{"type":"MultiPolygon","coordinates":[[[[45.718073,41.817423],[45.718558,41.816616],[45.718203,41.816488],[45.717702,41.817323],[45.718073,41.817423]]]]}},{"type":"Feature","properties":{"field_id":"GE-F-36","cell_id":"GE-235","crop":"Peach","is_cell":false,"score":7.5,"area_ha":2,"region":"Kakheti","municipality":"Kvareli"},"geometry":{"type":"MultiPolygon","coordinates":[[[[45.741231,41.81355],[45.742048,41.812829],[45.74051,41.811681],[45.739584,41.81235],[45.741231,41.81355]]]]}},{"type":"Feature","properties":{"field_id":"GE-F-37","cell_id":"GE-235","crop":"Apple","is_cell":false,"score":8.2,"area_ha":0.3,"region":"Kakheti","municipality":"Kvareli"},"geometry":{"type":"MultiPolygon","coordinates":[[[[45.748305,41.830006],[45.748944,41.829239],[45.748672,41.829096],[45.748041,41.829877],[45.748305,41.830006]]]]}},{"type":"Feature","properties":{"field_id":"GE-F-38","cell_id":"GE-235","crop":"Peach","is_cell":false,"score":9.2,"area_ha":0.3,"region":"Kakheti","municipality":"Kvareli"},"geometry":{"type":"MultiPolygon","coordinates":[[[[45.750093,41.83084],[45.750761,41.830032],[45.750514,41.829912],[45.749852,41.830706],[45.750093,41.83084]]]]}},{"type":"Feature","properties":{"field_id":"GE-F-39","cell_id":"GE-235","crop":"Apple","is_cell":false,"score":4.9,"area_ha":2.1,"region":"Kakheti","municipality":"Kvareli"},"geometry":{"type":"MultiPolygon","coordinates":[[[[45.75664,41.835608],[45.75757,41.834612],[45.757005,41.83422],[45.757073,41.834051],[45.756135,41.833003],[45.755258,41.833906],[45.75665,41.834508],[45.756752,41.834583],[45.756085,41.835379],[45.75664,41.835608]]]]}},{"type":"Feature","properties":{"field_id":"GE-F-40","cell_id":"GE-235","crop":"Peach","is_cell":false,"score":7.1,"area_ha":1.6,"region":"Kakheti","municipality":"Kvareli"},"geometry":{"type":"MultiPolygon","coordinates":[[[[45.761028,41.838728],[45.761311,41.838319],[45.760747,41.838025],[45.7611,41.837575],[45.760088,41.836941],[45.759306,41.837913],[45.759658,41.838062],[45.759706,41.838184],[45.761028,41.838728]]]]}},{"type":"Feature","properties":{"field_id":"GE-F-41","cell_id":"GE-235","crop":"Apple","is_cell":false,"score":3.4,"area_ha":0.4,"region":"Kakheti","municipality":"Kvareli"},"geometry":{"type":"MultiPolygon","coordinates":[[[[45.791131,41.845029],[45.79145,41.844739],[45.790439,41.844137],[45.790154,41.844428],[45.791131,41.845029]]]]}},{"type":"Feature","properties":{"field_id":"GE-F-42","cell_id":"GE-235","crop":"Peach","is_cell":false,"score":8,"area_ha":0.7,"region":"Kakheti","municipality":"Kvareli"},"geometry":{"type":"MultiPolygon","coordinates":[[[[45.798486,41.847258],[45.79897,41.846769],[45.798001,41.846194],[45.797486,41.846666],[45.798486,41.847258]]]]}},{"type":"Feature","properties":{"field_id":"GE-F-43","cell_id":"GE-235","crop":"Apple","is_cell":false,"score":9,"area_ha":0.3,"region":"Kakheti","municipality":"Kvareli"},"geometry":{"type":"MultiPolygon","coordinates":[[[[45.785806,41.831502],[45.786284,41.831149],[45.785849,41.83085],[45.78541,41.831249],[45.785806,41.831502]]]]}},{"type":"Feature","properties":{"field_id":"GE-F-44","cell_id":"GE-235","crop":"Peach","is_cell":false,"score":6.8,"area_ha":0.5,"region":"Kakheti","municipality":"Kvareli"},"geometry":{"type":"MultiPolygon","coordinates":[[[[45.771549,41.815996],[45.773144,41.816349],[45.773258,41.816063],[45.771704,41.815675],[45.771549,41.815996]]]]}},{"type":"Feature","properties":{"field_id":"GE-F-45","cell_id":"GE-235","crop":"Apple","is_cell":false,"score":3.8,"area_ha":0.6,"region":"Kakheti","municipality":"Kvareli"},"geometry":{"type":"MultiPolygon","coordinates":[[[[45.811045,41.838803],[45.81149,41.838363],[45.810418,41.837847],[45.810049,41.838251],[45.811045,41.838803]]]]}},{"type":"Feature","properties":{"field_id":"GE-F-46","cell_id":"GE-235","crop":"Peach","is_cell":false,"score":1.9,"area_ha":0.5,"region":"Kakheti","municipality":"Kvareli"},"geometry":{"type":"MultiPolygon","coordinates":[[[[45.790572,41.813573],[45.792114,41.813796],[45.792209,41.813452],[45.790674,41.813273],[45.790572,41.813573]]]]}},{"type":"Feature","properties":{"field_id":"GE-F-47","cell_id":"GE-235","crop":"Apple","is_cell":false,"score":1.1,"area_ha":1.3,"region":"Kakheti","municipality":"Kvareli"},"geometry":{"type":"MultiPolygon","coordinates":[[[[45.736829,41.821982],[45.737278,41.821112],[45.735874,41.820789],[45.735432,41.821659],[45.736829,41.821982]]]]}},{"type":"Feature","properties":{"field_id":"GE-F-48","cell_id":"GE-235","crop":"Peach","is_cell":false,"score":1.4,"area_ha":0.7,"region":"Kakheti","municipality":"Kvareli"},"geometry":{"type":"MultiPolygon","coordinates":[[[[45.731002,41.845717],[45.732078,41.846196],[45.732485,41.84574],[45.731409,41.845226],[45.731002,41.845717]]]]}},{"type":"Feature","properties":{"field_id":"GE-F-49","cell_id":"GE-235","crop":"Apple","is_cell":false,"score":5.9,"area_ha":0.8,"region":"Kakheti","municipality":"Kvareli"},"geometry":{"type":"MultiPolygon","coordinates":[[[[45.721642,41.863835],[45.722201,41.863306],[45.721221,41.862736],[45.720798,41.863152],[45.720916,41.863244],[45.720792,41.863373],[45.721642,41.863835]]]]}},{"type":"Feature","properties":{"field_id":"GE-F-50","cell_id":"GE-235","crop":"Apple","is_cell":false,"score":7,"area_ha":1.1,"region":"Kakheti","municipality":"Kvareli"},"geometry":{"type":"MultiPolygon","coordinates":[[[[45.730563,41.873521],[45.731576,41.872513],[45.730862,41.872081],[45.729799,41.873098],[45.730563,41.873521]]]]}},{"type":"Feature","properties":{"field_id":"GE-F-51","cell_id":"GE-235","crop":"Peach","is_cell":false,"score":9.4,"area_ha":1.5,"region":"Kakheti","municipality":"Kvareli"},"geometry":{"type":"MultiPolygon","coordinates":[[[[45.737098,41.89047],[45.738217,41.889589],[45.737305,41.888897],[45.736179,41.889841],[45.737098,41.89047]]]]}},{"type":"Feature","properties":{"field_id":"GE-F-52","cell_id":"GE-235","crop":"Apple","is_cell":false,"score":2.5,"area_ha":0.8,"region":"Kakheti","municipality":"Kvareli"},"geometry":{"type":"MultiPolygon","coordinates":[[[[45.727283,41.888507],[45.727839,41.888049],[45.726881,41.887409],[45.726272,41.887896],[45.727283,41.888507]]]]}},{"type":"Feature","properties":{"field_id":"GE-F-53","cell_id":"GE-235","crop":"Peach","is_cell":false,"score":1.1,"area_ha":2.5,"region":"Kakheti","municipality":"Kvareli"},"geometry":{"type":"MultiPolygon","coordinates":[[[[45.718965,41.891062],[45.720876,41.889502],[45.719957,41.888818],[45.718019,41.890413],[45.718965,41.891062]]]]}},{"type":"Feature","properties":{"field_id":"GE-F-54","cell_id":"GE-235","crop":"Apple","is_cell":false,"score":6,"area_ha":1.1,"region":"Kakheti","municipality":"Kvareli"},"geometry":{"type":"MultiPolygon","coordinates":[[[[45.756776,41.851937],[45.757537,41.851117],[45.75641,41.850624],[45.755766,41.851414],[45.756776,41.851937]]]]}},{"type":"Feature","properties":{"field_id":"GE-F-55","cell_id":"GE-235","crop":"Peach","is_cell":false,"score":6.3,"area_ha":0.8,"region":"Kakheti","municipality":"Kvareli"},"geometry":{"type":"MultiPolygon","coordinates":[[[[45.759896,41.845217],[45.76061,41.84438],[45.759898,41.844053],[45.759184,41.844895],[45.759896,41.845217]]]]}},{"type":"Feature","properties":{"field_id":"GE-F-56","cell_id":"GE-235","crop":"Apple","is_cell":false,"score":2.1,"area_ha":0.5,"region":"Kakheti","municipality":"Kvareli"},"geometry":{"type":"MultiPolygon","coordinates":[[[[45.789899,41.852965],[45.790355,41.852677],[45.789506,41.851967],[45.78905,41.852296],[45.789899,41.852965]]]]}},{"type":"Feature","properties":{"field_id":"GE-F-57","cell_id":"GE-235","crop":"Apple","is_cell":false,"score":8.9,"area_ha":1.3,"region":"Kakheti","municipality":"Kvareli"},"geometry":{"type":"MultiPolygon","coordinates":[[[[45.770711,41.833736],[45.771653,41.833063],[45.771213,41.832743],[45.770587,41.833143],[45.770404,41.832798],[45.769219,41.833592],[45.769746,41.834068],[45.770452,41.833586],[45.770711,41.833736]]]]}},{"type":"Feature","properties":{"field_id":"GE-F-58","cell_id":"GE-235","crop":"Apple","is_cell":false,"score":4.6,"area_ha":0.5,"region":"Kakheti","municipality":"Kvareli"},"geometry":{"type":"MultiPolygon","coordinates":[[[[45.794669,41.834513],[45.795091,41.834044],[45.794347,41.833604],[45.793862,41.834056],[45.794669,41.834513]]]]}},{"type":"Feature","properties":{"field_id":"GE-F-59","cell_id":"GE-235","crop":"Peach","is_cell":false,"score":4.6,"area_ha":1.1,"region":"Kakheti","municipality":"Kvareli"},"geometry":{"type":"MultiPolygon","coordinates":[[[[45.800539,41.836795],[45.801553,41.836054],[45.800519,41.835514],[45.799736,41.836087],[45.800539,41.836795]]]]}},{"type":"Feature","properties":{"field_id":"GE-F-60","cell_id":"GE-235","crop":"Apple","is_cell":false,"score":7.7,"area_ha":1.3,"region":"Kakheti","municipality":"Kvareli"},"geometry":{"type":"MultiPolygon","coordinates":[[[[45.816232,41.826812],[45.816811,41.825824],[45.815669,41.82541],[45.815155,41.826299],[45.815321,41.826513],[45.816232,41.826812]]]]}},{"type":"Feature","properties":{"field_id":"GE-F-61","cell_id":"GE-235","crop":"Peach","is_cell":false,"score":5.1,"area_ha":1.1,"region":"Kakheti","municipality":"Kvareli"},"geometry":{"type":"MultiPolygon","coordinates":[[[[45.82061,41.877083],[45.821803,41.876929],[45.8216,41.875935],[45.820359,41.876104],[45.82061,41.877083]]]]}},{"type":"Feature","properties":{"field_id":"GE-F-62","cell_id":"GE-235","crop":"Apple","is_cell":false,"score":2.8,"area_ha":0.5,"region":"Kakheti","municipality":"Kvareli"},"geometry":{"type":"MultiPolygon","coordinates":[[[[45.82386,41.891815],[45.823748,41.891909],[45.823836,41.892066],[45.823916,41.89224],[45.823961,41.892414],[45.823971,41.892618],[45.823959,41.892857],[45.824078,41.893048],[45.824812,41.892909],[45.82386,41.891815]]]]}},{"type":"Feature","properties":{"field_id":"GE-F-63","cell_id":"GE-235","crop":"Peach","is_cell":false,"score":9.8,"area_ha":1.6,"region":"Kakheti","municipality":"Kvareli"},"geometry":{"type":"MultiPolygon","coordinates":[[[[45.829871,41.889782],[45.830345,41.889732],[45.829718,41.887],[45.828902,41.887175],[45.829115,41.887942],[45.829329,41.888231],[45.829488,41.888486],[45.829723,41.889235],[45.829819,41.889427],[45.829871,41.889782]]]]}},{"type":"Feature","properties":{"field_id":"GE-F-64","cell_id":"GE-235","crop":"Apple","is_cell":false,"score":2.7,"area_ha":4,"region":"Kakheti","municipality":"Kvareli"},"geometry":{"type":"MultiPolygon","coordinates":[[[[45.827828,41.879418],[45.831295,41.878892],[45.831124,41.8777],[45.827502,41.87825],[45.827828,41.879418]]]]}},{"type":"Feature","properties":{"field_id":"GE-F-65","cell_id":"GE-235","crop":"Apple","is_cell":false,"score":3.8,"area_ha":2.1,"region":"Kakheti","municipality":"Kvareli"},"geometry":{"type":"MultiPolygon","coordinates":[[[[45.81996,41.857315],[45.820597,41.8572],[45.819902,41.854632],[45.819031,41.854737],[45.819661,41.857079],[45.819839,41.857042],[45.81996,41.857315]]]]}},{"type":"Feature","properties":{"field_id":"GE-F-66","cell_id":"GE-235","crop":"Apple","is_cell":false,"score":2.7,"area_ha":19.6,"region":"Kakheti","municipality":"Kvareli"},"geometry":{"type":"MultiPolygon","coordinates":[[[[45.793549,41.88434],[45.79421,41.885459],[45.794001,41.885565],[45.79417,41.885994],[45.794403,41.886587],[45.794256,41.886692],[45.793844,41.886119],[45.793736,41.886184],[45.793622,41.886429],[45.793879,41.887021],[45.792787,41.887576],[45.793456,41.888735],[45.79327,41.888818],[45.793773,41.889862],[45.794059,41.890297],[45.794171,41.890494],[45.794296,41.890545],[45.799031,41.889843],[45.797619,41.88717],[45.797235,41.886951],[45.796953,41.886825],[45.796678,41.886658],[45.796466,41.886473],[45.796306,41.88616],[45.796364,41.885816],[45.795988,41.885056],[45.79459,41.88538],[45.793697,41.883722],[45.792874,41.883902],[45.793176,41.884418],[45.793549,41.88434]]]]}},{"type":"Feature","properties":{"field_id":"GE-F-67","cell_id":"GE-235","crop":"Peach","is_cell":false,"score":6.7,"area_ha":0.7,"region":"Kakheti","municipality":"Kvareli"},"geometry":{"type":"MultiPolygon","coordinates":[[[[45.775535,41.871646],[45.775957,41.871125],[45.774881,41.870655],[45.774435,41.871182],[45.775535,41.871646]]]]}},{"type":"Feature","properties":{"field_id":"GE-F-68","cell_id":"GE-235","crop":"Apple","is_cell":false,"score":5.2,"area_ha":1.4,"region":"Kakheti","municipality":"Kvareli"},"geometry":{"type":"MultiPolygon","coordinates":[[[[45.744856,41.882041],[45.745904,41.88112],[45.744877,41.880516],[45.743875,41.881442],[45.744856,41.882041]]]]}},{"type":"Feature","properties":{"field_id":"GE-F-69","cell_id":"GE-235","crop":"Apple","is_cell":false,"score":4.2,"area_ha":1.2,"region":"Kakheti","municipality":"Kvareli"},"geometry":{"type":"MultiPolygon","coordinates":[[[[45.752766,41.882391],[45.753768,41.881558],[45.752826,41.880918],[45.751933,41.881814],[45.752766,41.882391]]]]}},{"type":"Feature","properties":{"field_id":"GE-F-70","cell_id":"GE-235","crop":"Peach","is_cell":false,"score":8.6,"area_ha":0.5,"region":"Kakheti","municipality":"Kvareli"},"geometry":{"type":"MultiPolygon","coordinates":[[[[45.735488,41.861141],[45.735796,41.860924],[45.735136,41.860346],[45.735328,41.860158],[45.735163,41.860014],[45.734314,41.860642],[45.734464,41.86081],[45.734827,41.860575],[45.735488,41.861141]]]]}},{"type":"Feature","properties":{"field_id":"GE-F-71","cell_id":"GE-235","crop":"Apple","is_cell":false,"score":6.5,"area_ha":2,"region":"Kakheti","municipality":"Kvareli"},"geometry":{"type":"MultiPolygon","coordinates":[[[[45.722798,41.870325],[45.723699,41.869406],[45.722093,41.868583],[45.7212,41.869503],[45.722798,41.870325]]]]}},{"type":"Feature","properties":{"field_id":"GE-F-72","cell_id":"GE-235","crop":"Apple","is_cell":false,"score":7.2,"area_ha":1.5,"region":"Kakheti","municipality":"Kvareli"},"geometry":{"type":"MultiPolygon","coordinates":[[[[45.725845,41.883577],[45.726995,41.882633],[45.726006,41.881952],[45.724934,41.882908],[45.725845,41.883577]]]]}},{"type":"Feature","properties":{"field_id":"GE-F-73","cell_id":"GE-235","crop":"Peach","is_cell":false,"score":2.3,"area_ha":3.2,"region":"Kakheti","municipality":"Kvareli"},"geometry":{"type":"MultiPolygon","coordinates":[[[[45.79611,41.863496],[45.7974,41.862634],[45.795556,41.861195],[45.794248,41.862135],[45.79611,41.863496]]]]}},{"type":"Feature","properties":{"field_id":"GE-F-74","cell_id":"GE-235","crop":"Apple","is_cell":false,"score":3,"area_ha":1.3,"region":"Kakheti","municipality":"Kvareli"},"geometry":{"type":"MultiPolygon","coordinates":[[[[45.746983,41.849676],[45.747636,41.848889],[45.746407,41.84832],[45.7457,41.849102],[45.746983,41.849676]]]]}},{"type":"Feature","properties":{"field_id":"GE-F-75","cell_id":"GE-235","crop":"Peach","is_cell":false,"score":3.9,"area_ha":0.8,"region":"Kakheti","municipality":"Kvareli"},"geometry":{"type":"MultiPolygon","coordinates":[[[[45.754307,41.845213],[45.754944,41.844429],[45.754208,41.844067],[45.75354,41.844854],[45.754307,41.845213]]]]}},{"type":"Feature","properties":{"field_id":"GE-F-76","cell_id":"GE-235","crop":"Peach","is_cell":false,"score":6.7,"area_ha":0.4,"region":"Kakheti","municipality":"Kvareli"},"geometry":{"type":"MultiPolygon","coordinates":[[[[45.7468,41.856342],[45.747464,41.855569],[45.747045,41.855365],[45.74635,41.856129],[45.7468,41.856342]]]]}},{"type":"Feature","properties":{"field_id":"GE-F-77","cell_id":"GE-235","crop":"Apple","is_cell":false,"score":7.6,"area_ha":0.2,"region":"Kakheti","municipality":"Kvareli"},"geometry":{"type":"MultiPolygon","coordinates":[[[[45.718605,41.826585],[45.719033,41.826181],[45.718567,41.825951],[45.718211,41.826445],[45.718605,41.826585]]]]}},{"type":"Feature","properties":{"field_id":"GE-F-78","cell_id":"GE-235","crop":"Peach","is_cell":false,"score":3.6,"area_ha":1.3,"region":"Kakheti","municipality":"Kvareli"},"geometry":{"type":"MultiPolygon","coordinates":[[[[45.746057,41.843663],[45.746764,41.842911],[45.745325,41.842312],[45.744723,41.843069],[45.746057,41.843663]]]]}},{"type":"Feature","properties":{"field_id":"GE-F-79","cell_id":"GE-235","crop":"Peach","is_cell":false,"score":2.4,"area_ha":1.2,"region":"Kakheti","municipality":"Kvareli"},"geometry":{"type":"MultiPolygon","coordinates":[[[[45.805183,41.822024],[45.805575,41.821302],[45.803952,41.820915],[45.803595,41.821616],[45.805183,41.822024]]]]}}]}