{"type":"FeatureCollection","name":"fields-uzbekistan","features":[{"type":"Feature","properties":{"field_id":"UZ-F-0","cell_id":"UZ-72","crop":"Peach","is_cell":false,"score":6.6,"area_ha":1.6,"region":"Fergana","municipality":"Furkat"},"geometry":{"type":"MultiPolygon","coordinates":[[[[70.896484,40.382602],[70.897718,40.382466],[70.898326,40.381409],[70.896673,40.381291],[70.896484,40.382602]]]]}},{"type":"Feature","properties":{"field_id":"UZ-F-1","cell_id":"UZ-72","crop":null,"is_cell":true,"score":0,"area_ha":10017.7,"region":"Fergana","municipality":"Furkat"},"geometry":{"type":"MultiPolygon","coordinates":[[[[70.944324,40.368412],[70.826224,40.368412],[70.826224,40.458412],[70.944324,40.458412],[70.944324,40.368412]]]]}},{"type":"Feature","properties":{"field_id":"UZ-F-2","cell_id":"UZ-72","crop":"Peach","is_cell":false,"score":6.3,"area_ha":4.5,"region":"Fergana","municipality":"Furkat"},"geometry":{"type":"MultiPolygon","coordinates":[[[[70.903814,40.381698],[70.906463,40.381761],[70.906801,40.379953],[70.904196,40.379858],[70.903814,40.381698]]]]}},{"type":"Feature","properties":{"field_id":"UZ-F-3","cell_id":"UZ-72","crop":"Apple","is_cell":false,"score":3.8,"area_ha":1,"region":"Fergana","municipality":"Furkat"},"geometry":{"type":"MultiPolygon","coordinates":[[[[70.918879,40.381108],[70.919295,40.381433],[70.920369,40.381355],[70.920423,40.381234],[70.921021,40.381059],[70.920761,40.380498],[70.918879,40.381108]]]]}},{"type":"Feature","properties":{"field_id":"UZ-F-4","cell_id":"UZ-72","crop":"Apple","is_cell":false,"score":4.8,"area_ha":1,"region":"Fergana","municipality":"Furkat"},"geometry":{"type":"MultiPolygon","coordinates":[[[[70.917093,40.379813],[70.918121,40.379777],[70.917838,40.378701],[70.916924,40.378791],[70.917093,40.379813]]]]}},{"type":"Feature","properties":{"field_id":"UZ-F-5","cell_id":"UZ-72","crop":"Apple","is_cell":false,"score":8,"area_ha":1.9,"region":"Fergana","municipality":"Furkat"},"geometry":{"type":"MultiPolygon","coordinates":[[[[70.922393,40.372532],[70.924696,40.372111],[70.924758,40.371751],[70.925036,40.371206],[70.922475,40.371648],[70.922393,40.372532]]]]}},{"type":"Feature","properties":{"field_id":"UZ-F-6","cell_id":"UZ-72","crop":"Peach","is_cell":false,"score":5.1,"area_ha":1.3,"region":"Fergana","municipality":"Furkat"},"geometry":{"type":"MultiPolygon","coordinates":[[[[70.898209,40.377474],[70.899126,40.377478],[70.899381,40.375995],[70.898484,40.375975],[70.898209,40.377474]]]]}},{"type":"Feature","properties":{"field_id":"UZ-F-7","cell_id":"UZ-72","crop":"Apple","is_cell":false,"score":8.2,"area_ha":0.4,"region":"Fergana","municipality":"Furkat"},"geometry":{"type":"MultiPolygon","coordinates":[[[[70.906313,40.376623],[70.907377,40.376657],[70.907472,40.376233],[70.906419,40.376169],[70.906313,40.376623]]]]}},{"type":"Feature","properties":{"field_id":"UZ-F-8","cell_id":"UZ-72","crop":"Peach","is_cell":false,"score":2.7,"area_ha":0.8,"region":"Fergana","municipality":"Furkat"},"geometry":{"type":"MultiPolygon","coordinates":[[[[70.909878,40.376251],[70.912567,40.376345],[70.912577,40.376027],[70.909847,40.375953],[70.909878,40.376251]]]]}},{"type":"Feature","properties":{"field_id":"UZ-F-9","cell_id":"UZ-72","crop":"Peach","is_cell":false,"score":2.9,"area_ha":1.8,"region":"Fergana","municipality":"Furkat"},"geometry":{"type":"MultiPolygon","coordinates":[[[[70.928663,40.381027],[70.930272,40.380528],[70.929653,40.37943],[70.928261,40.379929],[70.928261,40.38011],[70.928353,40.3804],[70.928518,40.380673],[70.92847,40.380709],[70.928663,40.381027]]]]}},{"type":"Feature","properties":{"field_id":"UZ-F-10","cell_id":"UZ-72","crop":"Apple","is_cell":false,"score":4.2,"area_ha":1.1,"region":"Fergana","municipality":"Furkat"},"geometry":{"type":"MultiPolygon","coordinates":[[[[70.939877,40.369821],[70.938042,40.369984],[70.93797,40.370199],[70.937893,40.370452],[70.939045,40.370802],[70.939877,40.369821]]]]}},{"type":"Feature","properties":{"field_id":"UZ-F-11","cell_id":"UZ-72","crop":"Apple","is_cell":false,"score":2.5,"area_ha":0.2,"region":"Fergana","municipality":"Furkat"},"geometry":{"type":"MultiPolygon","coordinates":[[[[70.93736,40.375769],[70.937685,40.375693],[70.937293,40.375201],[70.93718,40.375171],[70.936941,40.375241],[70.93736,40.375769]]]]}},{"type":"Feature","properties":{"field_id":"UZ-F-12","cell_id":"UZ-72","crop":"Peach","is_cell":false,"score":8.2,"area_ha":1.1,"region":"Fergana","municipality":"Furkat"},"geometry":{"type":"MultiPolygon","coordinates":[[[[70.931323,40.37613],[70.933222,40.37562],[70.933069,40.375011],[70.931183,40.375591],[70.931323,40.37613]]]]}},{"type":"Feature","properties":{"field_id":"UZ-F-13","cell_id":"UZ-72","crop":"Apple","is_cell":false,"score":7.5,"area_ha":0.6,"region":"Fergana","municipality":"Furkat"},"geometry":{"type":"MultiPolygon","coordinates":[[[[70.904801,40.391559],[70.906873,40.391628],[70.906917,40.39133],[70.904859,40.391281],[70.904801,40.391559]]]]}},{"type":"Feature","properties":{"field_id":"UZ-F-14","cell_id":"UZ-72","crop":"Peach","is_cell":false,"score":9.9,"area_ha":0.5,"region":"Fergana","municipality":"Furkat"},"geometry":{"type":"MultiPolygon","coordinates":[[[[70.900994,40.373834],[70.901233,40.373719],[70.901464,40.373521],[70.90171,40.373118],[70.901725,40.372652],[70.90108,40.372864],[70.900994,40.373834]]]]}},{"type":"Feature","properties":{"field_id":"UZ-F-15","cell_id":"UZ-72","crop":"Apple","is_cell":false,"score":3.5,"area_ha":3,"region":"Fergana","municipality":"Furkat"},"geometry":{"type":"MultiPolygon","coordinates":[[[[70.894608,40.374833],[70.897695,40.373828],[70.89788,40.372703],[70.896714,40.373002],[70.896671,40.373221],[70.894376,40.374051],[70.894608,40.374833]]]]}},{"type":"Feature","properties":{"field_id":"UZ-F-16","cell_id":"UZ-72","crop":"Apple","is_cell":false,"score":3.5,"area_ha":0.3,"region":"Fergana","municipality":"Furkat"},"geometry":{"type":"MultiPolygon","coordinates":[[[[70.891424,40.379345],[70.891548,40.379806],[70.891741,40.379776],[70.891761,40.379873],[70.892138,40.379802],[70.891973,40.379203],[70.891424,40.379345]]]]}},{"type":"Feature","properties":{"field_id":"UZ-F-17","cell_id":"UZ-72","crop":"Peach","is_cell":false,"score":1.9,"area_ha":0.5,"region":"Fergana","municipality":"Furkat"},"geometry":{"type":"MultiPolygon","coordinates":[[[[70.895091,40.37656],[70.896102,40.37655],[70.896129,40.376082],[70.895101,40.376065],[70.895091,40.37656]]]]}},{"type":"Feature","properties":{"field_id":"UZ-F-18","cell_id":"UZ-72","crop":"Peach","is_cell":false,"score":4.5,"area_ha":2.2,"region":"Fergana","municipality":"Furkat"},"geometry":{"type":"MultiPolygon","coordinates":[[[[70.924978,40.393796],[70.92516,40.393705],[70.925243,40.393795],[70.925473,40.393779],[70.928006,40.391903],[70.926518,40.392002],[70.924398,40.393607],[70.924978,40.393796]]]]}},{"type":"Feature","properties":{"field_id":"UZ-F-19","cell_id":"UZ-72","crop":"Apple","is_cell":false,"score":7.4,"area_ha":0.6,"region":"Fergana","municipality":"Furkat"},"geometry":{"type":"MultiPolygon","coordinates":[[[[70.935407,40.387639],[70.936112,40.387133],[70.935462,40.386717],[70.934815,40.387098],[70.935407,40.387639]]]]}},{"type":"Feature","properties":{"field_id":"UZ-F-20","cell_id":"UZ-72","crop":"Apple","is_cell":false,"score":9,"area_ha":0.6,"region":"Fergana","municipality":"Furkat"},"geometry":{"type":"MultiPolygon","coordinates":[[[[70.928804,40.387254],[70.929162,40.386918],[70.929537,40.386663],[70.929475,40.386336],[70.928354,40.386712],[70.928034,40.387005],[70.928804,40.387254]]]]}},{"type":"Feature","properties":{"field_id":"UZ-F-21","cell_id":"UZ-72","crop":"Peach","is_cell":false,"score":4.9,"area_ha":1.7,"region":"Fergana","municipality":"Furkat"},"geometry":{"type":"MultiPolygon","coordinates":[[[[70.923835,40.431585],[70.925809,40.430958],[70.925482,40.430201],[70.923395,40.430851],[70.923835,40.431585]]]]}},{"type":"Feature","properties":{"field_id":"UZ-F-22","cell_id":"UZ-72","crop":"Apple","is_cell":false,"score":3.8,"area_ha":2,"region":"Fergana","municipality":"Furkat"},"geometry":{"type":"MultiPolygon","coordinates":[[[[70.92136,40.434389],[70.922522,40.434037],[70.922112,40.43325],[70.922048,40.432979],[70.921857,40.432609],[70.921638,40.432707],[70.921505,40.432435],[70.92077,40.432655],[70.920886,40.432938],[70.920643,40.433112],[70.92136,40.434389]]]]}},{"type":"Feature","properties":{"field_id":"UZ-F-23","cell_id":"UZ-72","crop":"Apple","is_cell":false,"score":9.6,"area_ha":4.9,"region":"Fergana","municipality":"Furkat"},"geometry":{"type":"MultiPolygon","coordinates":[[[[70.917776,40.43961],[70.920285,40.438829],[70.919331,40.43706],[70.918134,40.437442],[70.916822,40.437858],[70.917776,40.43961]]]]}},{"type":"Feature","properties":{"field_id":"UZ-F-24","cell_id":"UZ-72","crop":"Peach","is_cell":false,"score":8.8,"area_ha":1,"region":"Fergana","municipality":"Furkat"},"geometry":{"type":"MultiPolygon","coordinates":[[[[70.922962,40.45141],[70.923811,40.450248],[70.923152,40.449924],[70.922285,40.451173],[70.922962,40.45141]]]]}},{"type":"Feature","properties":{"field_id":"UZ-F-25","cell_id":"UZ-72","crop":"Peach","is_cell":false,"score":8.3,"area_ha":0.5,"region":"Fergana","municipality":"Furkat"},"geometry":{"type":"MultiPolygon","coordinates":[[[[70.926696,40.456778],[70.927367,40.455624],[70.926936,40.455486],[70.926292,40.456665],[70.926696,40.456778]]]]}},{"type":"Feature","properties":{"field_id":"UZ-F-26","cell_id":"UZ-72","crop":"Apple","is_cell":false,"score":8,"area_ha":1.7,"region":"Fergana","municipality":"Furkat"},"geometry":{"type":"MultiPolygon","coordinates":[[[[70.930203,40.457471],[70.931359,40.457755],[70.931827,40.456234],[70.930694,40.456049],[70.930203,40.457471]]]]}},{"type":"Feature","properties":{"field_id":"UZ-F-27","cell_id":"UZ-72","crop":"Apple","is_cell":false,"score":4,"area_ha":0.9,"region":"Fergana","municipality":"Furkat"},"geometry":{"type":"MultiPolygon","coordinates":[[[[70.937903,40.452465],[70.937967,40.451332],[70.937094,40.451297],[70.93688,40.452222],[70.937903,40.452465]]]]}},{"type":"Feature","properties":{"field_id":"UZ-F-28","cell_id":"UZ-72","crop":"Apple","is_cell":false,"score":1.5,"area_ha":1.2,"region":"Fergana","municipality":"Furkat"},"geometry":{"type":"MultiPolygon","coordinates":[[[[70.940777,40.450279],[70.942158,40.448684],[70.941632,40.448372],[70.940285,40.449933],[70.940777,40.450279]]]]}},{"type":"Feature","properties":{"field_id":"UZ-F-29","cell_id":"UZ-72","crop":"Apple","is_cell":false,"score":2.4,"area_ha":1.6,"region":"Fergana","municipality":"Furkat"},"geometry":{"type":"MultiPolygon","coordinates":[[[[70.94239,40.441665],[70.943708,40.440151],[70.942991,40.439705],[70.941592,40.441365],[70.94239,40.441665]]]]}},{"type":"Feature","properties":{"field_id":"UZ-F-30","cell_id":"UZ-72","crop":"Peach","is_cell":false,"score":2.8,"area_ha":3.6,"region":"Fergana","municipality":"Furkat"},"geometry":{"type":"MultiPolygon","coordinates":[[[[70.939308,40.439503],[70.941008,40.437445],[70.939973,40.436878],[70.93899,40.438133],[70.938268,40.437907],[70.938065,40.438098],[70.938123,40.439786],[70.938626,40.439197],[70.939308,40.439503]]]]}},{"type":"Feature","properties":{"field_id":"UZ-F-31","cell_id":"UZ-72","crop":"Apple","is_cell":false,"score":5.1,"area_ha":0.5,"region":"Fergana","municipality":"Furkat"},"geometry":{"type":"MultiPolygon","coordinates":[[[[70.928185,40.427715],[70.929995,40.427148],[70.929653,40.426975],[70.928012,40.427455],[70.928185,40.427715]]]]}},{"type":"Feature","properties":{"field_id":"UZ-F-32","cell_id":"UZ-72","crop":"Peach","is_cell":false,"score":6.7,"area_ha":2.2,"region":"Fergana","municipality":"Furkat"},"geometry":{"type":"MultiPolygon","coordinates":[[[[70.936822,40.421535],[70.937129,40.422616],[70.937308,40.422558],[70.93751,40.422795],[70.939493,40.421598],[70.93899,40.421257],[70.938707,40.421222],[70.936822,40.421535]]]]}},{"type":"Feature","properties":{"field_id":"UZ-F-33","cell_id":"UZ-72","crop":"Peach","is_cell":false,"score":5.2,"area_ha":11,"region":"Fergana","municipality":"Furkat"},"geometry":{"type":"MultiPolygon","coordinates":[[[[70.937776,40.39673],[70.938736,40.394683],[70.932793,40.394556],[70.931,40.396001],[70.937776,40.39673]]]]}},{"type":"Feature","properties":{"field_id":"UZ-F-34","cell_id":"UZ-72","crop":"Apple","is_cell":false,"score":5.8,"area_ha":4.2,"region":"Fergana","municipality":"Furkat"},"geometry":{"type":"MultiPolygon","coordinates":[[[[70.84117,40.450034],[70.843026,40.449855],[70.842875,40.447554],[70.840898,40.44771],[70.84117,40.450034]]]]}},{"type":"Feature","properties":{"field_id":"UZ-F-35","cell_id":"UZ-72","crop":"Peach","is_cell":false,"score":6.8,"area_ha":2.7,"region":"Fergana","municipality":"Furkat"},"geometry":{"type":"MultiPolygon","coordinates":[[[[70.883287,40.414345],[70.885403,40.413207],[70.885253,40.41305],[70.885715,40.41279],[70.885045,40.412079],[70.883114,40.413114],[70.883287,40.414345]]]]}},{"type":"Feature","properties":{"field_id":"UZ-F-36","cell_id":"UZ-72","crop":"Apple","is_cell":false,"score":3.2,"area_ha":0.8,"region":"Fergana","municipality":"Furkat"},"geometry":{"type":"MultiPolygon","coordinates":[[[[70.906713,40.43961],[70.90743,40.439159],[70.906944,40.438448],[70.905996,40.438974],[70.906713,40.43961]]]]}},{"type":"Feature","properties":{"field_id":"UZ-F-37","cell_id":"UZ-72","crop":"Peach","is_cell":false,"score":7.2,"area_ha":0.4,"region":"Fergana","municipality":"Furkat"},"geometry":{"type":"MultiPolygon","coordinates":[[[[70.904325,40.442795],[70.904961,40.442801],[70.90495,40.442385],[70.904314,40.441923],[70.904325,40.442795]]]]}},{"type":"Feature","properties":{"field_id":"UZ-F-38","cell_id":"UZ-72","crop":"Peach","is_cell":false,"score":2,"area_ha":0.9,"region":"Fergana","municipality":"Furkat"},"geometry":{"type":"MultiPolygon","coordinates":[[[[70.938187,40.412744],[70.937528,40.412507],[70.937106,40.412409],[70.937059,40.41249],[70.936869,40.412906],[70.936626,40.413426],[70.936921,40.413594],[70.938146,40.41286],[70.938187,40.412744]]]]}},{"type":"Feature","properties":{"field_id":"UZ-F-39","cell_id":"UZ-72","crop":"Peach","is_cell":false,"score":9.8,"area_ha":1.9,"region":"Fergana","municipality":"Furkat"},"geometry":{"type":"MultiPolygon","coordinates":[[[[70.879844,40.428114],[70.881162,40.427195],[70.881567,40.426871],[70.881717,40.426495],[70.881619,40.426385],[70.881405,40.426206],[70.878763,40.427883],[70.879844,40.428114]]]]}},{"type":"Feature","properties":{"field_id":"UZ-F-40","cell_id":"UZ-72","crop":"Peach","is_cell":false,"score":5,"area_ha":5.3,"region":"Fergana","municipality":"Furkat"},"geometry":{"type":"MultiPolygon","coordinates":[[[[70.875641,40.41747],[70.879318,40.414938],[70.879145,40.414742],[70.879283,40.41462],[70.878908,40.41388],[70.874601,40.416678],[70.875641,40.41747]]]]}},{"type":"Feature","properties":{"field_id":"UZ-F-41","cell_id":"UZ-72","crop":"Peach","is_cell":false,"score":6.1,"area_ha":1.2,"region":"Fergana","municipality":"Furkat"},"geometry":{"type":"MultiPolygon","coordinates":[[[[70.828159,40.44795],[70.82824,40.44679],[70.827405,40.446764],[70.826971,40.447117],[70.826962,40.447314],[70.827205,40.44738],[70.827263,40.447981],[70.828159,40.44795]]]]}},{"type":"Feature","properties":{"field_id":"UZ-F-42","cell_id":"UZ-72","crop":"Apple","is_cell":false,"score":3.4,"area_ha":2,"region":"Fergana","municipality":"Furkat"},"geometry":{"type":"MultiPolygon","coordinates":[[[[70.866793,40.374148],[70.868949,40.374587],[70.869024,40.374049],[70.869319,40.374003],[70.869475,40.373489],[70.867313,40.373402],[70.866793,40.374148]]]]}},{"type":"Feature","properties":{"field_id":"UZ-F-43","cell_id":"UZ-72","crop":"Peach","is_cell":false,"score":6.4,"area_ha":6.8,"region":"Fergana","municipality":"Furkat"},"geometry":{"type":"MultiPolygon","coordinates":[[[[70.859312,40.371754],[70.86137,40.371621],[70.861902,40.368736],[70.860786,40.368852],[70.860919,40.369569],[70.857861,40.369875],[70.857976,40.370558],[70.859312,40.371754]]]]}},{"type":"Feature","properties":{"field_id":"UZ-F-44","cell_id":"UZ-72","crop":"Apple","is_cell":false,"score":6,"area_ha":1.2,"region":"Fergana","municipality":"Furkat"},"geometry":{"type":"MultiPolygon","coordinates":[[[[70.906889,40.405711],[70.907742,40.406231],[70.908531,40.405214],[70.907713,40.404702],[70.906889,40.405711]]]]}},{"type":"Feature","properties":{"field_id":"UZ-F-45","cell_id":"UZ-72","crop":"Peach","is_cell":false,"score":4.9,"area_ha":0.7,"region":"Fergana","municipality":"Furkat"},"geometry":{"type":"MultiPolygon","coordinates":[[[[70.830226,40.39897],[70.830081,40.39856],[70.829665,40.398074],[70.828746,40.399248],[70.830226,40.39897]]]]}},{"type":"Feature","properties":{"field_id":"UZ-F-46","cell_id":"UZ-72","crop":"Apple","is_cell":false,"score":5.3,"area_ha":0.4,"region":"Fergana","municipality":"Furkat"},"geometry":{"type":"MultiPolygon","coordinates":[[[[70.85673,40.400355],[70.857285,40.40006],[70.856892,40.399574],[70.856164,40.399915],[70.856337,40.400251],[70.856574,40.400146],[70.85673,40.400355]]]]}},{"type":"Feature","properties":{"field_id":"UZ-F-47","cell_id":"UZ-72","crop":"Apple","is_cell":false,"score":7.1,"area_ha":0.2,"region":"Fergana","municipality":"Furkat"},"geometry":{"type":"MultiPolygon","coordinates":[[[[70.888036,40.380791],[70.888664,40.380843],[70.888733,40.380452],[70.888094,40.380389],[70.888036,40.380791]]]]}},{"type":"Feature","properties":{"field_id":"UZ-F-48","cell_id":"UZ-72","crop":"Peach","is_cell":false,"score":2,"area_ha":1.5,"region":"Fergana","municipality":"Furkat"},"geometry":{"type":"MultiPolygon","coordinates":[[[[70.902464,40.429365],[70.902915,40.427064],[70.902169,40.427024],[70.901822,40.429163],[70.902464,40.429365]]]]}},{"type":"Feature","properties":{"field_id":"UZ-F-49","cell_id":"UZ-72","crop":"Peach","is_cell":false,"score":4.5,"area_ha":1,"region":"Fergana","municipality":"Furkat"},"geometry":{"type":"MultiPolygon","coordinates":[[[[70.869655,40.41634],[70.870528,40.415797],[70.870204,40.414953],[70.869207,40.415435],[70.869383,40.415678],[70.869247,40.415782],[70.869452,40.416005],[70.869415,40.416057],[70.869655,40.41634]]]]}}]}