{"type":"FeatureCollection","name":"grid-uzbekistan","features":[{"type":"Feature","properties":{"cell_id":"UZ-86","area_ha":10000,"country":"UZ","region":"Fergana","municipality":"Bagdad"},"geometry":{"type":"MultiPolygon","coordinates":[[[[70.948074,40.550112],[71.066924,40.550112],[71.066924,40.460282],[70.948074,40.460282],[70.948074,40.550112]]]]}},{"type":"Feature","properties":{"cell_id":"UZ-87","area_ha":10000,"country":"UZ","region":"Fergana","municipality":"Bagdad"},"geometry":{"type":"MultiPolygon","coordinates":[[[[70.948074,40.460282],[71.066924,40.460282],[71.066924,40.370452],[70.948074,40.370452],[70.948074,40.460282]]]]}},{"type":"Feature","properties":{"cell_id":"UZ-88","area_ha":6796,"country":"UZ","region":"Fergana","municipality":"Bagdad"},"geometry":{"type":"MultiPolygon","coordinates":[[[[71.065392,40.314913],[71.060468,40.309442],[71.052261,40.304792],[71.045148,40.297679],[71.044601,40.292755],[71.045002,40.289344],[71.042766,40.289608],[71.040499,40.288086],[71.037791,40.286068],[71.036729,40.285429],[71.034572,40.285493],[71.032564,40.291113],[71.028187,40.304244],[71.02299,40.314093],[71.003566,40.317102],[70.985511,40.314913],[70.958726,40.314596],[70.948074,40.313531],[70.948074,40.370452],[71.066924,40.370452],[71.066924,40.31521],[71.065392,40.314913]]]]}},{"type":"Feature","properties":{"cell_id":"UZ-100","area_ha":10000,"country":"UZ","region":"Fergana","municipality":"Bagdad"},"geometry":{"type":"MultiPolygon","coordinates":[[[[71.066924,40.639942],[71.185774,40.639942],[71.185774,40.550112],[71.066924,40.550112],[71.066924,40.639942]]]]}},{"type":"Feature","properties":{"cell_id":"UZ-101","area_ha":10000,"country":"UZ","region":"Fergana","municipality":"Bagdad"},"geometry":{"type":"MultiPolygon","coordinates":[[[[71.066924,40.550112],[71.185774,40.550112],[71.185774,40.460282],[71.066924,40.460282],[71.066924,40.550112]]]]}},{"type":"Feature","properties":{"cell_id":"UZ-102","area_ha":10000,"country":"UZ","region":"Fergana","municipality":"Bagdad"},"geometry":{"type":"MultiPolygon","coordinates":[[[[71.066924,40.460282],[71.185774,40.460282],[71.185774,40.370452],[71.066924,40.370452],[71.066924,40.460282]]]]}},{"type":"Feature","properties":{"cell_id":"UZ-103","area_ha":4271,"country":"UZ","region":"Fergana","municipality":"Bagdad"},"geometry":{"type":"MultiPolygon","coordinates":[[[[71.096852,40.331054],[71.087277,40.331054],[71.085089,40.32695],[71.085362,40.321205],[71.073872,40.316555],[71.066924,40.31521],[71.066924,40.370452],[71.185774,40.370452],[71.185774,40.344475],[71.181011,40.343758],[71.173191,40.340153],[71.16893,40.338752],[71.165552,40.337609],[71.162961,40.335805],[71.160168,40.334911],[71.156453,40.334444],[71.151646,40.334742],[71.147425,40.335288],[71.142196,40.335114],[71.139787,40.335377],[71.134642,40.33635],[71.129777,40.337676],[71.127686,40.337606],[71.125108,40.335572],[71.123912,40.334279],[71.11955,40.330886],[71.115838,40.327825],[71.111898,40.329139],[71.105332,40.333789],[71.096852,40.331054]]]]}},{"type":"Feature","properties":{"cell_id":"UZ-115","area_ha":10000,"country":"UZ","region":"Fergana","municipality":"Bagdad"},"geometry":{"type":"MultiPolygon","coordinates":[[[[71.185774,40.639942],[71.304624,40.639942],[71.304624,40.550112],[71.185774,40.550112],[71.185774,40.639942]]]]}},{"type":"Feature","properties":{"cell_id":"UZ-116","area_ha":10000,"country":"UZ","region":"Fergana","municipality":"Bagdad"},"geometry":{"type":"MultiPolygon","coordinates":[[[[71.185774,40.550112],[71.304624,40.550112],[71.304624,40.460282],[71.185774,40.460282],[71.185774,40.550112]]]]}},{"type":"Feature","properties":{"cell_id":"UZ-117","area_ha":10000,"country":"UZ","region":"Fergana","municipality":"Bagdad"},"geometry":{"type":"MultiPolygon","coordinates":[[[[71.185774,40.460282],[71.304624,40.460282],[71.304624,40.370452],[71.185774,40.370452],[71.185774,40.460282]]]]}},{"type":"Feature","properties":{"cell_id":"UZ-130","area_ha":10000,"country":"UZ","region":"Fergana","municipality":"Bagdad"},"geometry":{"type":"MultiPolygon","coordinates":[[[[71.304624,40.639942],[71.423474,40.639942],[71.423474,40.550112],[71.304624,40.550112],[71.304624,40.639942]]]]}},{"type":"Feature","properties":{"cell_id":"UZ-131","area_ha":10000,"country":"UZ","region":"Fergana","municipality":"Bagdad"},"geometry":{"type":"MultiPolygon","coordinates":[[[[71.304624,40.550112],[71.423474,40.550112],[71.423474,40.460282],[71.304624,40.460282],[71.304624,40.550112]]]]}},{"type":"Feature","properties":{"cell_id":"UZ-11","area_ha":3238,"country":"UZ","region":"Fergana","municipality":"Besharik"},"geometry":{"type":"MultiPolygon","coordinates":[[[[70.369637,40.475515],[70.399351,40.490191],[70.468184,40.50249],[70.472674,40.50389],[70.472674,40.460282],[70.357207,40.460282],[70.369637,40.475515]]]]}},{"type":"Feature","properties":{"cell_id":"UZ-12","area_ha":8840,"country":"UZ","region":"Fergana","municipality":"Besharik"},"geometry":{"type":"MultiPolygon","coordinates":[[[[70.384933,40.399706],[70.382143,40.403943],[70.373564,40.411798],[70.371394,40.413348],[70.371963,40.412987],[70.358785,40.427714],[70.357028,40.430402],[70.355426,40.435104],[70.353824,40.456136],[70.357207,40.460282],[70.472674,40.460282],[70.472674,40.370452],[70.373545,40.370452],[70.384933,40.399706]]]]}},{"type":"Feature","properties":{"cell_id":"UZ-13","area_ha":1888,"country":"UZ","region":"Fergana","municipality":"Besharik"},"geometry":{"type":"MultiPolygon","coordinates":[[[[70.464102,40.344825],[70.442191,40.343327],[70.42121,40.347978],[70.371394,40.364927],[70.373545,40.370452],[70.472674,40.370452],[70.472674,40.346851],[70.464102,40.344825]]]]}},{"type":"Feature","properties":{"cell_id":"UZ-25","area_ha":1177,"country":"UZ","region":"Fergana","municipality":"Besharik"},"geometry":{"type":"MultiPolygon","coordinates":[[[[70.525493,40.557112],[70.539446,40.561866],[70.554225,40.565019],[70.569315,40.570445],[70.582079,40.578765],[70.591524,40.587695],[70.591524,40.550112],[70.516322,40.550112],[70.525493,40.557112]]]]}},{"type":"Feature","properties":{"cell_id":"UZ-26","area_ha":9018,"country":"UZ","region":"Fergana","municipality":"Besharik"},"geometry":{"type":"MultiPolygon","coordinates":[[[[70.477796,40.505487],[70.487873,40.515564],[70.511954,40.546777],[70.516322,40.550112],[70.591524,40.550112],[70.591524,40.460282],[70.472674,40.460282],[70.472674,40.50389],[70.477796,40.505487]]]]}},{"type":"Feature","properties":{"cell_id":"UZ-27","area_ha":10000,"country":"UZ","region":"Fergana","municipality":"Besharik"},"geometry":{"type":"MultiPolygon","coordinates":[[[[70.472674,40.460282],[70.591524,40.460282],[70.591524,40.370452],[70.472674,40.370452],[70.472674,40.460282]]]]}},{"type":"Feature","properties":{"cell_id":"UZ-28","area_ha":4604,"country":"UZ","region":"Fergana","municipality":"Besharik"},"geometry":{"type":"MultiPolygon","coordinates":[[[[70.571315,40.320604],[70.561738,40.317903],[70.561492,40.311027],[70.566158,40.304642],[70.572789,40.288189],[70.573477,40.280622],[70.55921,40.280622],[70.550608,40.310461],[70.524046,40.34374],[70.501929,40.35082],[70.482912,40.34927],[70.472674,40.346851],[70.472674,40.370452],[70.591524,40.370452],[70.591524,40.320394],[70.571315,40.320604]]]]}},{"type":"Feature","properties":{"cell_id":"UZ-40","area_ha":8479,"country":"UZ","region":"Fergana","municipality":"Besharik"},"geometry":{"type":"MultiPolygon","coordinates":[[[[70.617167,40.611941],[70.661968,40.639942],[70.710374,40.639942],[70.710374,40.550112],[70.591524,40.550112],[70.591524,40.587695],[70.617167,40.611941]]]]}},{"type":"Feature","properties":{"cell_id":"UZ-41","area_ha":10000,"country":"UZ","region":"Fergana","municipality":"Besharik"},"geometry":{"type":"MultiPolygon","coordinates":[[[[70.591524,40.550112],[70.710374,40.550112],[70.710374,40.460282],[70.591524,40.460282],[70.591524,40.550112]]]]}},{"type":"Feature","properties":{"cell_id":"UZ-42","area_ha":10000,"country":"UZ","region":"Fergana","municipality":"Besharik"},"geometry":{"type":"MultiPolygon","coordinates":[[[[70.591524,40.460282],[70.710374,40.460282],[70.710374,40.370452],[70.591524,40.370452],[70.591524,40.460282]]]]}},{"type":"Feature","properties":{"cell_id":"UZ-43","area_ha":5929,"country":"UZ","region":"Fergana","municipality":"Besharik"},"geometry":{"type":"MultiPolygon","coordinates":[[[[70.707537,40.324277],[70.710374,40.320359],[70.710374,40.316035],[70.701957,40.314465],[70.686732,40.313483],[70.675436,40.313974],[70.660702,40.313974],[70.651861,40.317412],[70.637127,40.320359],[70.617482,40.322078],[70.59489,40.320359],[70.591524,40.320394],[70.591524,40.370452],[70.710374,40.370452],[70.710374,40.324409],[70.707537,40.324277]]]]}},{"type":"Feature","properties":{"cell_id":"UZ-57","area_ha":10000,"country":"UZ","region":"Fergana","municipality":"Besharik"},"geometry":{"type":"MultiPolygon","coordinates":[[[[70.710374,40.460282],[70.829224,40.460282],[70.829224,40.370452],[70.710374,40.370452],[70.710374,40.460282]]]]}},{"type":"Feature","properties":{"cell_id":"UZ-58","area_ha":5628,"country":"UZ","region":"Fergana","municipality":"Besharik"},"geometry":{"type":"MultiPolygon","coordinates":[[[[70.821747,40.322978],[70.813585,40.324964],[70.798145,40.324081],[70.783587,40.32364],[70.780057,40.319449],[70.786234,40.306876],[70.798807,40.294744],[70.806527,40.285921],[70.806768,40.280622],[70.792806,40.280622],[70.793348,40.287235],[70.78482,40.293631],[70.777358,40.302958],[70.773627,40.315483],[70.769896,40.324544],[70.7643,40.325876],[70.730455,40.325343],[70.710374,40.324409],[70.710374,40.370452],[70.829224,40.370452],[70.829224,40.322572],[70.821747,40.322978]]],[[[70.713133,40.316549],[70.710374,40.316035],[70.710374,40.320359],[70.713133,40.316549]]]]}},{"type":"Feature","properties":{"cell_id":"UZ-133","area_ha":6892,"country":"UZ","region":"Fergana","municipality":"Fergana"},"geometry":{"type":"MultiPolygon","coordinates":[[[[71.421552,40.288846],[71.41452,40.292169],[71.408535,40.29541],[71.403715,40.299144],[71.401088,40.30089],[71.398901,40.303883],[71.394831,40.307526],[71.391471,40.30902],[71.388941,40.308941],[71.385536,40.308492],[71.382887,40.307838],[71.38035,40.307873],[71.37614,40.30854],[71.373063,40.30753],[71.368795,40.306482],[71.365372,40.306374],[71.360299,40.306443],[71.361025,40.306809],[71.364679,40.30818],[71.370951,40.310776],[71.374495,40.3142],[71.375427,40.316286],[71.370441,40.3175],[71.362009,40.317349],[71.360514,40.317416],[71.357345,40.318116],[71.353574,40.318911],[71.350293,40.318921],[71.348872,40.31762],[71.347674,40.314955],[71.346367,40.313485],[71.342211,40.313125],[71.338649,40.313641],[71.336758,40.315523],[71.336504,40.317457],[71.334073,40.318293],[71.330792,40.318303],[71.326574,40.319083],[71.324534,40.318219],[71.323008,40.316114],[71.321972,40.313225],[71.320055,40.31008],[71.317804,40.30761],[71.314982,40.307405],[71.311819,40.30799],[71.307987,40.309923],[71.304624,40.312293],[71.304624,40.370452],[71.423474,40.370452],[71.423474,40.287895],[71.421552,40.288846]]]]}},{"type":"Feature","properties":{"cell_id":"UZ-148","area_ha":10000,"country":"UZ","region":"Fergana","municipality":"Fergana"},"geometry":{"type":"MultiPolygon","coordinates":[[[[71.443113,40.281321],[71.436792,40.282497],[71.428287,40.285513],[71.423474,40.287895],[71.423474,40.370452],[71.542324,40.370452],[71.542324,40.280622],[71.447305,40.280622],[71.443113,40.281321]]]]}},{"type":"Feature","properties":{"cell_id":"UZ-149","area_ha":1823,"country":"UZ","region":"Fergana","municipality":"Fergana"},"geometry":{"type":"MultiPolygon","coordinates":[[[[71.536521,40.223862],[71.533557,40.224758],[71.53131,40.225318],[71.528401,40.225141],[71.524205,40.225015],[71.517842,40.226167],[71.514589,40.228128],[71.511556,40.230365],[71.51007,40.232021],[71.510052,40.232379],[71.513181,40.232832],[71.514823,40.234941],[71.516681,40.237415],[71.516466,40.239343],[71.51449,40.241432],[71.513605,40.242749],[71.515006,40.24503],[71.515628,40.246571],[71.513723,40.249558],[71.511127,40.252345],[71.510893,40.254617],[71.509838,40.259238],[71.511245,40.263665],[71.511505,40.267699],[71.510844,40.269201],[71.508778,40.270749],[71.506816,40.272568],[71.50517,40.275024],[71.50261,40.277094],[71.499639,40.278078],[71.497507,40.275671],[71.494435,40.27455],[71.491007,40.27456],[71.48505,40.274493],[71.481729,40.275306],[71.478444,40.275435],[71.475581,40.276033],[71.471617,40.27774],[71.466225,40.27826],[71.459392,40.277823],[71.456524,40.278534],[71.450631,40.280067],[71.447305,40.280622],[71.542324,40.280622],[71.542324,40.221911],[71.536521,40.223862]]]]}},{"type":"Feature","properties":{"cell_id":"UZ-162","area_ha":10000,"country":"UZ","region":"Fergana","municipality":"Fergana"},"geometry":{"type":"MultiPolygon","coordinates":[[[[71.542324,40.460282],[71.661174,40.460282],[71.661174,40.370452],[71.542324,40.370452],[71.542324,40.460282]]]]}},{"type":"Feature","properties":{"cell_id":"UZ-163","area_ha":10000,"country":"UZ","region":"Fergana","municipality":"Fergana"},"geometry":{"type":"MultiPolygon","coordinates":[[[[71.542324,40.370452],[71.661174,40.370452],[71.661174,40.280622],[71.542324,40.280622],[71.542324,40.370452]]]]}},{"type":"Feature","properties":{"cell_id":"UZ-164","area_ha":4755,"country":"UZ","region":"Fergana","municipality":"Fergana"},"geometry":{"type":"MultiPolygon","coordinates":[[[[71.660684,40.27152],[71.656713,40.271494],[71.653093,40.271479],[71.650324,40.270772],[71.647954,40.269091],[71.644465,40.267593],[71.640216,40.266127],[71.637667,40.265694],[71.63127,40.26515],[71.626604,40.265014],[71.622746,40.26508],[71.620414,40.265012],[71.622041,40.262821],[71.622108,40.26148],[71.621964,40.259684],[71.622013,40.258701],[71.624757,40.257527],[71.625399,40.256879],[71.61013,40.246382],[71.604032,40.227261],[71.601919,40.21187],[71.596595,40.213584],[71.596191,40.214647],[71.593738,40.217951],[71.591465,40.219048],[71.589138,40.21889],[71.586323,40.219165],[71.584418,40.219915],[71.582342,40.219405],[71.581221,40.218477],[71.581065,40.21695],[71.580384,40.216572],[71.577918,40.216857],[71.573709,40.217001],[71.570553,40.217086],[71.570145,40.21591],[71.569455,40.21571],[71.567012,40.215548],[71.564668,40.215747],[71.561503,40.216012],[71.555226,40.217795],[71.543125,40.221642],[71.542324,40.221911],[71.542324,40.280622],[71.661174,40.280622],[71.661174,40.271534],[71.660684,40.27152]]]]}},{"type":"Feature","properties":{"cell_id":"UZ-178","area_ha":10000,"country":"UZ","region":"Fergana","municipality":"Fergana"},"geometry":{"type":"MultiPolygon","coordinates":[[[[71.661174,40.370452],[71.780024,40.370452],[71.780024,40.280622],[71.661174,40.280622],[71.661174,40.370452]]]]}},{"type":"Feature","properties":{"cell_id":"UZ-179","area_ha":7657,"country":"UZ","region":"Fergana","municipality":"Fergana"},"geometry":{"type":"MultiPolygon","coordinates":[[[[71.683518,40.190801],[71.684721,40.192448],[71.684548,40.193607],[71.681803,40.194872],[71.679523,40.196149],[71.676934,40.196612],[71.6726,40.196935],[71.669423,40.197471],[71.667136,40.198317],[71.667181,40.204162],[71.666771,40.205345],[71.667527,40.205207],[71.672454,40.202304],[71.673582,40.200725],[71.673605,40.19786],[71.674326,40.197433],[71.681927,40.197114],[71.684189,40.196194],[71.687223,40.196191],[71.689955,40.195195],[71.692066,40.194986],[71.694612,40.195417],[71.696204,40.196269],[71.696169,40.196984],[71.695526,40.19822],[71.694299,40.201856],[71.693573,40.204791],[71.694453,40.20589],[71.696313,40.206033],[71.699253,40.20558],[71.703673,40.203467],[71.70723,40.202315],[71.708387,40.202527],[71.708339,40.20351],[71.708054,40.204577],[71.70691,40.206514],[71.704086,40.209389],[71.701245,40.212621],[71.699329,40.216024],[71.697368,40.220356],[71.696663,40.222843],[71.695376,40.225314],[71.695297,40.226923],[71.696601,40.228931],[71.699058,40.233613],[71.700366,40.235531],[71.700305,40.236783],[71.697465,40.244762],[71.695314,40.251292],[71.692709,40.252023],[71.687239,40.254016],[71.683761,40.255886],[71.681772,40.258336],[71.681227,40.259933],[71.680605,40.260721],[71.680749,40.264934],[71.681294,40.270501],[71.680192,40.271544],[71.677625,40.27147],[71.674709,40.271387],[71.671559,40.271296],[71.6671,40.271705],[71.661174,40.271534],[71.661174,40.280622],[71.780024,40.280622],[71.780024,40.190792],[71.683502,40.190792],[71.683518,40.190801]]]]}},{"type":"Feature","properties":{"cell_id":"UZ-180","area_ha":1427,"country":"UZ","region":"Fergana","municipality":"Fergana"},"geometry":{"type":"MultiPolygon","coordinates":[[[[71.77926,40.184124],[71.775869,40.182988],[71.774522,40.181876],[71.772384,40.180204],[71.769656,40.178695],[71.765034,40.17776],[71.761627,40.177038],[71.757113,40.176284],[71.75448,40.175225],[71.752496,40.175259],[71.748873,40.175382],[71.745464,40.173495],[71.742318,40.170988],[71.739568,40.167508],[71.737026,40.16457],[71.733993,40.162156],[71.733336,40.158824],[71.732654,40.156029],[71.732763,40.155855],[71.724919,40.152303],[71.724611,40.153528],[71.724499,40.155853],[71.723374,40.159851],[71.723046,40.161811],[71.722887,40.16512],[71.723819,40.167565],[71.722321,40.170093],[71.720379,40.174067],[71.719284,40.175021],[71.718589,40.174912],[71.717312,40.174786],[71.715271,40.175982],[71.712177,40.177237],[71.71024,40.178705],[71.708647,40.180271],[71.705472,40.180808],[71.70277,40.181179],[71.700047,40.181996],[71.697346,40.182367],[71.693687,40.183247],[71.690564,40.185093],[71.688539,40.185931],[71.684396,40.187155],[71.680227,40.188916],[71.679726,40.189618],[71.681818,40.189768],[71.683502,40.190792],[71.780024,40.190792],[71.780024,40.185081],[71.77926,40.184124]]]]}},{"type":"Feature","properties":{"cell_id":"UZ-193","area_ha":10000,"country":"UZ","region":"Fergana","municipality":"Fergana"},"geometry":{"type":"MultiPolygon","coordinates":[[[[71.780024,40.370452],[71.898874,40.370452],[71.898874,40.280622],[71.780024,40.280622],[71.780024,40.370452]]]]}},{"type":"Feature","properties":{"cell_id":"UZ-194","area_ha":4429,"country":"UZ","region":"Fergana","municipality":"Fergana"},"geometry":{"type":"MultiPolygon","coordinates":[[[[71.898804,40.259469],[71.896618,40.259769],[71.894119,40.260777],[71.891685,40.260353],[71.889581,40.260386],[71.887803,40.260965],[71.885783,40.261716],[71.881525,40.262855],[71.877567,40.262569],[71.874317,40.262123],[71.872379,40.261086],[71.869903,40.259049],[71.86824,40.258249],[71.867732,40.258005],[71.86647,40.257523],[71.864228,40.257999],[71.863045,40.258326],[71.860021,40.258064],[71.857583,40.257729],[71.855529,40.256689],[71.852542,40.255622],[71.848855,40.254537],[71.846659,40.254029],[71.841702,40.25264],[71.84059,40.251445],[71.840687,40.249357],[71.836473,40.249172],[71.805467,40.225298],[71.78676,40.193517],[71.784584,40.190792],[71.780024,40.190792],[71.780024,40.280622],[71.898874,40.280622],[71.898874,40.259447],[71.898804,40.259469]]]]}},{"type":"Feature","properties":{"cell_id":"UZ-195","area_ha":12,"country":"UZ","region":"Fergana","municipality":"Fergana"},"geometry":{"type":"MultiPolygon","coordinates":[[[[71.780024,40.185081],[71.780024,40.190792],[71.784584,40.190792],[71.780024,40.185081]]]]}},{"type":"Feature","properties":{"cell_id":"UZ-207","area_ha":10000,"country":"UZ","region":"Fergana","municipality":"Fergana"},"geometry":{"type":"MultiPolygon","coordinates":[[[[71.898874,40.460282],[72.017724,40.460282],[72.017724,40.370452],[71.898874,40.370452],[71.898874,40.460282]]]]}},{"type":"Feature","properties":{"cell_id":"UZ-208","area_ha":6941,"country":"UZ","region":"Fergana","municipality":"Fergana"},"geometry":{"type":"MultiPolygon","coordinates":[[[[72.01628,40.354513],[72.014945,40.352416],[72.011688,40.350755],[72.008616,40.348491],[72.00349,40.346053],[72.00262,40.34421],[72.000615,40.342944],[72.000685,40.341369],[71.999366,40.340019],[71.998179,40.33885],[71.99716,40.337623],[71.994389,40.336793],[71.99178,40.33603],[71.989914,40.335286],[71.988644,40.334115],[71.984864,40.333095],[71.979725,40.330189],[71.972806,40.326606],[71.968462,40.32435],[71.962757,40.319412],[71.962808,40.318279],[71.963052,40.318161],[71.956672,40.31568],[71.951091,40.30152],[71.958222,40.286534],[71.968877,40.280622],[71.898874,40.280622],[71.898874,40.370452],[72.017724,40.370452],[72.017724,40.35527],[72.01628,40.354513]]]]}},{"type":"Feature","properties":{"cell_id":"UZ-209","area_ha":2274,"country":"UZ","region":"Fergana","municipality":"Fergana"},"geometry":{"type":"MultiPolygon","coordinates":[[[[71.977033,40.276096],[71.992719,40.270493],[71.991486,40.26979],[71.989046,40.266861],[71.986715,40.264114],[71.984843,40.261557],[71.983152,40.26017],[71.981776,40.259597],[71.980272,40.259289],[71.978682,40.258262],[71.978578,40.256137],[71.978331,40.253802],[71.977165,40.253772],[71.973653,40.253948],[71.969884,40.254656],[71.964796,40.256134],[71.958649,40.257764],[71.953822,40.258622],[71.94965,40.257885],[71.942823,40.256451],[71.939022,40.255275],[71.945676,40.252765],[71.953049,40.249825],[71.956982,40.248521],[71.959806,40.247585],[71.965541,40.244691],[71.96555,40.244483],[71.965572,40.244],[71.96339,40.243746],[71.951814,40.240904],[71.932541,40.24214],[71.932287,40.242273],[71.929965,40.24454],[71.927889,40.246544],[71.926256,40.249098],[71.926183,40.250708],[71.92576,40.252309],[71.924669,40.253175],[71.923804,40.254227],[71.924077,40.255936],[71.922266,40.257231],[71.921096,40.257289],[71.920199,40.256459],[71.918719,40.255614],[71.91754,40.255851],[71.916695,40.256456],[71.91398,40.257099],[71.909876,40.257438],[71.906344,40.25806],[71.90082,40.258807],[71.898874,40.259447],[71.898874,40.280622],[71.968877,40.280622],[71.977033,40.276096]]]]}},{"type":"Feature","properties":{"cell_id":"UZ-222","area_ha":5873,"country":"UZ","region":"Fergana","municipality":"Fergana"},"geometry":{"type":"MultiPolygon","coordinates":[[[[72.126616,40.458778],[72.121944,40.456597],[72.117409,40.454905],[72.115869,40.453774],[72.115895,40.453167],[72.119643,40.450954],[72.121615,40.449424],[72.121968,40.448583],[72.119923,40.44812],[72.117861,40.448068],[72.112575,40.445386],[72.106232,40.441463],[72.102877,40.438222],[72.099596,40.433282],[72.099214,40.431087],[72.099445,40.429393],[72.10422,40.429148],[72.106509,40.42941],[72.099299,40.426371],[72.090101,40.416035],[72.085836,40.402765],[72.083947,40.403697],[72.081542,40.404243],[72.078312,40.401855],[72.07475,40.399822],[72.07271,40.399284],[72.069856,40.399212],[72.068143,40.39844],[72.063619,40.392982],[72.059968,40.385725],[72.057928,40.381544],[72.054156,40.380719],[72.051356,40.379434],[72.049217,40.377558],[72.047711,40.375706],[72.048815,40.372216],[72.047606,40.37085],[72.046691,40.370452],[72.017724,40.370452],[72.017724,40.460282],[72.1289,40.460282],[72.126616,40.458778]]]]}},{"type":"Feature","properties":{"cell_id":"UZ-223","area_ha":202,"country":"UZ","region":"Fergana","municipality":"Fergana"},"geometry":{"type":"MultiPolygon","coordinates":[[[[72.044648,40.369561],[72.041394,40.367779],[72.03812,40.366482],[72.0355,40.364716],[72.033182,40.363321],[72.029147,40.361276],[72.02601,40.360467],[72.023091,40.358329],[72.01969,40.3563],[72.017724,40.35527],[72.017724,40.370452],[72.046691,40.370452],[72.044648,40.369561]]]]}},{"type":"Feature","properties":{"cell_id":"UZ-118","area_ha":3534,"country":"UZ","region":"Fergana","municipality":"Rishtan"},"geometry":{"type":"MultiPolygon","coordinates":[[[[71.302094,40.314076],[71.298043,40.317259],[71.296275,40.319601],[71.294773,40.322522],[71.294226,40.324332],[71.295472,40.326086],[71.296073,40.328732],[71.295545,40.3302],[71.29382,40.331744],[71.294366,40.332676],[71.294421,40.334391],[71.294163,40.33495],[71.293042,40.33629],[71.288838,40.339249],[71.283613,40.341718],[71.280749,40.342084],[71.27689,40.341501],[71.275073,40.33915],[71.27246,40.33769],[71.269534,40.33645],[71.264504,40.334341],[71.264088,40.333756],[71.261589,40.333104],[71.258469,40.332889],[71.256299,40.331676],[71.25519,40.330156],[71.25498,40.32855],[71.253852,40.327371],[71.252079,40.327085],[71.248097,40.32627],[71.244258,40.325574],[71.242725,40.326324],[71.243432,40.327032],[71.244844,40.328449],[71.246159,40.328949],[71.248075,40.329354],[71.250103,40.330447],[71.250318,40.331939],[71.252264,40.334515],[71.252982,40.335341],[71.252932,40.336256],[71.252283,40.337152],[71.250414,40.338467],[71.248291,40.338971],[71.241927,40.341171],[71.237375,40.342284],[71.230587,40.343209],[71.226502,40.343992],[71.219091,40.345355],[71.211407,40.346249],[71.206263,40.347226],[71.202508,40.347447],[71.196265,40.346668],[71.187838,40.344786],[71.185774,40.344475],[71.185774,40.370452],[71.304624,40.370452],[71.304624,40.312293],[71.302094,40.314076]]]]}},{"type":"Feature","properties":{"cell_id":"UZ-132","area_ha":10000,"country":"UZ","region":"Fergana","municipality":"Rishtan"},"geometry":{"type":"MultiPolygon","coordinates":[[[[71.304624,40.460282],[71.423474,40.460282],[71.423474,40.370452],[71.304624,40.370452],[71.304624,40.460282]]]]}},{"type":"Feature","properties":{"cell_id":"UZ-147","area_ha":10000,"country":"UZ","region":"Fergana","municipality":"Rishtan"},"geometry":{"type":"MultiPolygon","coordinates":[[[[71.423474,40.460282],[71.542324,40.460282],[71.542324,40.370452],[71.423474,40.370452],[71.423474,40.460282]]]]}},{"type":"Feature","properties":{"cell_id":"UZ-145","area_ha":10000,"country":"UZ","region":"Fergana","municipality":"Altiarik"},"geometry":{"type":"MultiPolygon","coordinates":[[[[71.423474,40.639942],[71.542324,40.639942],[71.542324,40.550112],[71.423474,40.550112],[71.423474,40.639942]]]]}},{"type":"Feature","properties":{"cell_id":"UZ-146","area_ha":10000,"country":"UZ","region":"Fergana","municipality":"Altiarik"},"geometry":{"type":"MultiPolygon","coordinates":[[[[71.423474,40.550112],[71.542324,40.550112],[71.542324,40.460282],[71.423474,40.460282],[71.423474,40.550112]]]]}},{"type":"Feature","properties":{"cell_id":"UZ-161","area_ha":10000,"country":"UZ","region":"Fergana","municipality":"Altiarik"},"geometry":{"type":"MultiPolygon","coordinates":[[[[71.542324,40.550112],[71.661174,40.550112],[71.661174,40.460282],[71.542324,40.460282],[71.542324,40.550112]]]]}},{"type":"Feature","properties":{"cell_id":"UZ-69","area_ha":10000,"country":"UZ","region":"Fergana","municipality":"Uchkuprik"},"geometry":{"type":"MultiPolygon","coordinates":[[[[70.829224,40.729772],[70.948074,40.729772],[70.948074,40.639942],[70.829224,40.639942],[70.829224,40.729772]]]]}},{"type":"Feature","properties":{"cell_id":"UZ-84","area_ha":10000,"country":"UZ","region":"Fergana","municipality":"Uchkuprik"},"geometry":{"type":"MultiPolygon","coordinates":[[[[70.948074,40.729772],[71.066924,40.729772],[71.066924,40.639942],[70.948074,40.639942],[70.948074,40.729772]]]]}},{"type":"Feature","properties":{"cell_id":"UZ-85","area_ha":10000,"country":"UZ","region":"Fergana","municipality":"Uchkuprik"},"geometry":{"type":"MultiPolygon","coordinates":[[[[70.948074,40.639942],[71.066924,40.639942],[71.066924,40.550112],[70.948074,40.550112],[70.948074,40.639942]]]]}},{"type":"Feature","properties":{"cell_id":"UZ-37","area_ha":1034,"country":"UZ","region":"Namangan","municipality":"Pap"},"geometry":{"type":"MultiPolygon","coordinates":[[[[70.642037,40.863207],[70.648692,40.864871],[70.66188,40.861233],[70.685528,40.848499],[70.704174,40.83622],[70.710374,40.830888],[70.710374,40.819602],[70.692905,40.819602],[70.642037,40.863207]]]]}},{"type":"Feature","properties":{"cell_id":"UZ-38","area_ha":3380,"country":"UZ","region":"Namangan","municipality":"Pap"},"geometry":{"type":"MultiPolygon","coordinates":[[[[70.637424,40.770587],[70.621766,40.785987],[70.619338,40.803195],[70.628743,40.815856],[70.64869,40.81751],[70.683468,40.794514],[70.703157,40.788933],[70.70512,40.807433],[70.696852,40.816218],[70.692905,40.819602],[70.710374,40.819602],[70.710374,40.757728],[70.637424,40.770587]]]]}},{"type":"Feature","properties":{"cell_id":"UZ-50","area_ha":87,"country":"UZ","region":"Namangan","municipality":"Pap"},"geometry":{"type":"MultiPolygon","coordinates":[[[[70.73339,40.99951],[70.730339,41.009851],[70.732203,41.013411],[70.743901,40.999849],[70.744403,40.999262],[70.733536,40.999262],[70.73339,40.99951]]]]}},{"type":"Feature","properties":{"cell_id":"UZ-51","area_ha":1450,"country":"UZ","region":"Namangan","municipality":"Pap"},"geometry":{"type":"MultiPolygon","coordinates":[[[[70.763982,40.915659],[70.769594,40.925157],[70.768522,40.933461],[70.769206,40.934906],[70.76939,40.935661],[70.760684,40.948312],[70.751529,40.966621],[70.742375,40.984252],[70.733536,40.999262],[70.744403,40.999262],[70.757971,40.983404],[70.766109,40.97069],[70.770347,40.960518],[70.772804,40.95501],[70.773742,40.947727],[70.779597,40.943291],[70.789357,40.92537],[70.797186,40.909432],[70.765967,40.909432],[70.763982,40.915659]]]]}},{"type":"Feature","properties":{"cell_id":"UZ-52","area_ha":2890,"country":"UZ","region":"Namangan","municipality":"Pap"},"geometry":{"type":"MultiPolygon","coordinates":[[[[70.723498,40.819602],[70.710374,40.819602],[70.710374,40.830888],[70.723498,40.819602]]],[[[70.765568,40.827579],[70.774006,40.830022],[70.784675,40.826518],[70.801136,40.828949],[70.792157,40.849152],[70.775883,40.871599],[70.763162,40.88619],[70.761938,40.895254],[70.759094,40.900513],[70.758991,40.901752],[70.764738,40.904359],[70.767056,40.906015],[70.765967,40.909432],[70.797186,40.909432],[70.799293,40.905141],[70.80258,40.894589],[70.80195,40.882607],[70.805588,40.863961],[70.815138,40.841223],[70.829224,40.831585],[70.829224,40.819602],[70.745291,40.819602],[70.765568,40.827579]]]]}},{"type":"Feature","properties":{"cell_id":"UZ-53","area_ha":8931,"country":"UZ","region":"Namangan","municipality":"Pap"},"geometry":{"type":"MultiPolygon","coordinates":[[[[70.767132,40.737618],[70.728892,40.754464],[70.710374,40.757728],[70.710374,40.819602],[70.723498,40.819602],[70.726912,40.816665],[70.737827,40.816665],[70.745291,40.819602],[70.829224,40.819602],[70.829224,40.729772],[70.765122,40.729772],[70.767132,40.737618]]]]}},{"type":"Feature","properties":{"cell_id":"UZ-54","area_ha":7769,"country":"UZ","region":"Namangan","municipality":"Pap"},"geometry":{"type":"MultiPolygon","coordinates":[[[[70.715662,40.672144],[70.732096,40.674986],[70.735506,40.678862],[70.73716,40.683564],[70.740674,40.687698],[70.756177,40.69514],[70.756293,40.695578],[70.758502,40.703925],[70.765122,40.729772],[70.829224,40.729772],[70.829224,40.639942],[70.710374,40.639942],[70.710374,40.670165],[70.715662,40.672144]]]]}},{"type":"Feature","properties":{"cell_id":"UZ-67","area_ha":2570,"country":"UZ","region":"Namangan","municipality":"Pap"},"geometry":{"type":"MultiPolygon","coordinates":[[[[70.832419,40.829399],[70.854703,40.827125],[70.869256,40.827125],[70.877897,40.833492],[70.883354,40.848954],[70.90018,40.853047],[70.924657,40.851682],[70.948074,40.86159],[70.948074,40.819602],[70.829224,40.819602],[70.829224,40.831585],[70.832419,40.829399]]]]}},{"type":"Feature","properties":{"cell_id":"UZ-68","area_ha":10000,"country":"UZ","region":"Namangan","municipality":"Pap"},"geometry":{"type":"MultiPolygon","coordinates":[[[[70.829224,40.819602],[70.948074,40.819602],[70.948074,40.729772],[70.829224,40.729772],[70.829224,40.819602]]]]}},{"type":"Feature","properties":{"cell_id":"UZ-81","area_ha":1552,"country":"UZ","region":"Namangan","municipality":"Pap"},"geometry":{"type":"MultiPolygon","coordinates":[[[[71.066924,40.90947],[71.066924,40.909432],[71.066797,40.909432],[71.066924,40.90947]]],[[[71.065482,40.928007],[71.065482,40.940907],[71.066924,40.94267],[71.066924,40.926325],[71.065482,40.928007]]],[[[71.053657,40.958107],[71.036457,40.976382],[71.012807,40.980682],[71.009582,40.998957],[71.010616,40.999262],[71.066924,40.999262],[71.066924,40.954791],[71.053657,40.958107]]]]}},{"type":"Feature","properties":{"cell_id":"UZ-82","area_ha":7322,"country":"UZ","region":"Namangan","municipality":"Pap"},"geometry":{"type":"MultiPolygon","coordinates":[[[[70.980557,40.875332],[71.026782,40.891457],[71.053657,40.905432],[71.066797,40.909432],[71.066924,40.909432],[71.066924,40.819602],[70.948074,40.819602],[70.948074,40.86159],[70.980557,40.875332]]]]}},{"type":"Feature","properties":{"cell_id":"UZ-83","area_ha":10000,"country":"UZ","region":"Namangan","municipality":"Pap"},"geometry":{"type":"MultiPolygon","coordinates":[[[[70.948074,40.819602],[71.066924,40.819602],[71.066924,40.729772],[70.948074,40.729772],[70.948074,40.819602]]]]}},{"type":"Feature","properties":{"cell_id":"UZ-96","area_ha":10000,"country":"UZ","region":"Namangan","municipality":"Pap"},"geometry":{"type":"MultiPolygon","coordinates":[[[[71.078382,40.912957],[71.066924,40.926325],[71.066924,40.94267],[71.075157,40.952732],[71.066924,40.954791],[71.066924,40.999262],[71.185774,40.999262],[71.185774,40.909432],[71.066924,40.909432],[71.066924,40.90947],[71.078382,40.912957]]]]}},{"type":"Feature","properties":{"cell_id":"UZ-111","area_ha":10000,"country":"UZ","region":"Namangan","municipality":"Pap"},"geometry":{"type":"MultiPolygon","coordinates":[[[[71.185774,40.999262],[71.304624,40.999262],[71.304624,40.909432],[71.185774,40.909432],[71.185774,40.999262]]]]}},{"type":"Feature","properties":{"cell_id":"UZ-247","area_ha":10000,"country":"UZ","region":"Andizhan","municipality":"Andijan"},"geometry":{"type":"MultiPolygon","coordinates":[[[[72.255424,40.909432],[72.374274,40.909432],[72.374274,40.819602],[72.255424,40.819602],[72.255424,40.909432]]]]}},{"type":"Feature","properties":{"cell_id":"UZ-261","area_ha":10000,"country":"UZ","region":"Andizhan","municipality":"Andijan"},"geometry":{"type":"MultiPolygon","coordinates":[[[[72.483565,40.99352],[72.483358,40.970575],[72.493124,40.966753],[72.493124,40.909432],[72.374274,40.909432],[72.374274,40.999262],[72.485135,40.999262],[72.483565,40.99352]]]]}},{"type":"Feature","properties":{"cell_id":"UZ-262","area_ha":10000,"country":"UZ","region":"Andizhan","municipality":"Andijan"},"geometry":{"type":"MultiPolygon","coordinates":[[[[72.374274,40.909432],[72.493124,40.909432],[72.493124,40.819602],[72.374274,40.819602],[72.374274,40.909432]]]]}},{"type":"Feature","properties":{"cell_id":"UZ-276","area_ha":3452,"country":"UZ","region":"Andizhan","municipality":"Andijan"},"geometry":{"type":"MultiPolygon","coordinates":[[[[72.501445,40.963496],[72.52625,40.962204],[72.545577,40.956519],[72.585416,40.909432],[72.493124,40.909432],[72.493124,40.966753],[72.501445,40.963496]]]]}},{"type":"Feature","properties":{"cell_id":"UZ-277","area_ha":8922,"country":"UZ","region":"Andizhan","municipality":"Andijan"},"geometry":{"type":"MultiPolygon","coordinates":[[[[72.588468,40.905825],[72.59126,40.903508],[72.590831,40.901273],[72.588978,40.899412],[72.587143,40.897065],[72.587413,40.894033],[72.585903,40.891572],[72.583602,40.88885],[72.579236,40.885721],[72.576282,40.88335],[72.574621,40.880642],[72.574675,40.879185],[72.576997,40.876926],[72.581929,40.873263],[72.586804,40.871178],[72.591435,40.871396],[72.595559,40.871045],[72.601237,40.868854],[72.604672,40.866739],[72.606803,40.865325],[72.610185,40.864666],[72.611974,40.864623],[72.611974,40.819602],[72.493124,40.819602],[72.493124,40.909432],[72.585416,40.909432],[72.588468,40.905825]]]]}},{"type":"Feature","properties":{"cell_id":"UZ-278","area_ha":10000,"country":"UZ","region":"Andizhan","municipality":"Andijan"},"geometry":{"type":"MultiPolygon","coordinates":[[[[72.493124,40.819602],[72.611974,40.819602],[72.611974,40.729772],[72.493124,40.729772],[72.493124,40.819602]]]]}},{"type":"Feature","properties":{"cell_id":"UZ-159","area_ha":10000,"country":"UZ","region":"Andizhan","municipality":"Ulugnar"},"geometry":{"type":"MultiPolygon","coordinates":[[[[71.542324,40.729772],[71.661174,40.729772],[71.661174,40.639942],[71.542324,40.639942],[71.542324,40.729772]]]]}},{"type":"Feature","properties":{"cell_id":"UZ-160","area_ha":10000,"country":"UZ","region":"Andizhan","municipality":"Ulugnar"},"geometry":{"type":"MultiPolygon","coordinates":[[[[71.542324,40.639942],[71.661174,40.639942],[71.661174,40.550112],[71.542324,40.550112],[71.542324,40.639942]]]]}},{"type":"Feature","properties":{"cell_id":"UZ-171","area_ha":10000,"country":"UZ","region":"Andizhan","municipality":"Ulugnar"},"geometry":{"type":"MultiPolygon","coordinates":[[[[71.661174,40.999262],[71.780024,40.999262],[71.780024,40.909432],[71.661174,40.909432],[71.661174,40.999262]]]]}},{"type":"Feature","properties":{"cell_id":"UZ-172","area_ha":10000,"country":"UZ","region":"Andizhan","municipality":"Ulugnar"},"geometry":{"type":"MultiPolygon","coordinates":[[[[71.661174,40.909432],[71.780024,40.909432],[71.780024,40.819602],[71.661174,40.819602],[71.661174,40.909432]]]]}},{"type":"Feature","properties":{"cell_id":"UZ-173","area_ha":10000,"country":"UZ","region":"Andizhan","municipality":"Ulugnar"},"geometry":{"type":"MultiPolygon","coordinates":[[[[71.661174,40.819602],[71.780024,40.819602],[71.780024,40.729772],[71.661174,40.729772],[71.661174,40.819602]]]]}},{"type":"Feature","properties":{"cell_id":"UZ-70","area_ha":10000,"country":"UZ","region":"Fergana","municipality":"Kokand"},"geometry":{"type":"MultiPolygon","coordinates":[[[[70.829224,40.639942],[70.948074,40.639942],[70.948074,40.550112],[70.829224,40.550112],[70.829224,40.639942]]]]}},{"type":"Feature","properties":{"cell_id":"UZ-71","area_ha":10000,"country":"UZ","region":"Fergana","municipality":"Kokand"},"geometry":{"type":"MultiPolygon","coordinates":[[[[70.829224,40.550112],[70.948074,40.550112],[70.948074,40.460282],[70.829224,40.460282],[70.829224,40.550112]]]]}},{"type":"Feature","properties":{"cell_id":"UZ-55","area_ha":10000,"country":"UZ","region":"Fergana","municipality":"Furkat"},"geometry":{"type":"MultiPolygon","coordinates":[[[[70.710374,40.639942],[70.829224,40.639942],[70.829224,40.550112],[70.710374,40.550112],[70.710374,40.639942]]]]}},{"type":"Feature","properties":{"cell_id":"UZ-56","area_ha":10000,"country":"UZ","region":"Fergana","municipality":"Furkat"},"geometry":{"type":"MultiPolygon","coordinates":[[[[70.710374,40.550112],[70.829224,40.550112],[70.829224,40.460282],[70.710374,40.460282],[70.710374,40.550112]]]]}},{"type":"Feature","properties":{"cell_id":"UZ-72","area_ha":10000,"country":"UZ","region":"Fergana","municipality":"Furkat"},"geometry":{"type":"MultiPolygon","coordinates":[[[[70.829224,40.460282],[70.948074,40.460282],[70.948074,40.370452],[70.829224,40.370452],[70.829224,40.460282]]]]}},{"type":"Feature","properties":{"cell_id":"UZ-174","area_ha":10000,"country":"UZ","region":"Fergana","municipality":"Kushtepa"},"geometry":{"type":"MultiPolygon","coordinates":[[[[71.661174,40.729772],[71.780024,40.729772],[71.780024,40.639942],[71.661174,40.639942],[71.661174,40.729772]]]]}},{"type":"Feature","properties":{"cell_id":"UZ-39","area_ha":709,"country":"UZ","region":"Fergana","municipality":"Dangara"},"geometry":{"type":"MultiPolygon","coordinates":[[[[70.677939,40.649923],[70.692925,40.660413],[70.707239,40.668992],[70.710374,40.670165],[70.710374,40.639942],[70.661968,40.639942],[70.677939,40.649923]]]]}},{"type":"Feature","properties":{"cell_id":"UZ-97","area_ha":10000,"country":"UZ","region":"Namangan","municipality":"Mingbulak"},"geometry":{"type":"MultiPolygon","coordinates":[[[[71.066924,40.909432],[71.185774,40.909432],[71.185774,40.819602],[71.066924,40.819602],[71.066924,40.909432]]]]}},{"type":"Feature","properties":{"cell_id":"UZ-98","area_ha":10000,"country":"UZ","region":"Namangan","municipality":"Mingbulak"},"geometry":{"type":"MultiPolygon","coordinates":[[[[71.066924,40.819602],[71.185774,40.819602],[71.185774,40.729772],[71.066924,40.729772],[71.066924,40.819602]]]]}},{"type":"Feature","properties":{"cell_id":"UZ-99","area_ha":10000,"country":"UZ","region":"Namangan","municipality":"Mingbulak"},"geometry":{"type":"MultiPolygon","coordinates":[[[[71.066924,40.729772],[71.185774,40.729772],[71.185774,40.639942],[71.066924,40.639942],[71.066924,40.729772]]]]}},{"type":"Feature","properties":{"cell_id":"UZ-112","area_ha":10000,"country":"UZ","region":"Namangan","municipality":"Mingbulak"},"geometry":{"type":"MultiPolygon","coordinates":[[[[71.185774,40.909432],[71.304624,40.909432],[71.304624,40.819602],[71.185774,40.819602],[71.185774,40.909432]]]]}},{"type":"Feature","properties":{"cell_id":"UZ-113","area_ha":10000,"country":"UZ","region":"Namangan","municipality":"Mingbulak"},"geometry":{"type":"MultiPolygon","coordinates":[[[[71.185774,40.819602],[71.304624,40.819602],[71.304624,40.729772],[71.185774,40.729772],[71.185774,40.819602]]]]}},{"type":"Feature","properties":{"cell_id":"UZ-114","area_ha":10000,"country":"UZ","region":"Namangan","municipality":"Mingbulak"},"geometry":{"type":"MultiPolygon","coordinates":[[[[71.185774,40.729772],[71.304624,40.729772],[71.304624,40.639942],[71.185774,40.639942],[71.185774,40.729772]]]]}},{"type":"Feature","properties":{"cell_id":"UZ-127","area_ha":10000,"country":"UZ","region":"Namangan","municipality":"Mingbulak"},"geometry":{"type":"MultiPolygon","coordinates":[[[[71.304624,40.909432],[71.423474,40.909432],[71.423474,40.819602],[71.304624,40.819602],[71.304624,40.909432]]]]}},{"type":"Feature","properties":{"cell_id":"UZ-128","area_ha":10000,"country":"UZ","region":"Namangan","municipality":"Mingbulak"},"geometry":{"type":"MultiPolygon","coordinates":[[[[71.304624,40.819602],[71.423474,40.819602],[71.423474,40.729772],[71.304624,40.729772],[71.304624,40.819602]]]]}},{"type":"Feature","properties":{"cell_id":"UZ-129","area_ha":10000,"country":"UZ","region":"Namangan","municipality":"Mingbulak"},"geometry":{"type":"MultiPolygon","coordinates":[[[[71.304624,40.729772],[71.423474,40.729772],[71.423474,40.639942],[71.304624,40.639942],[71.304624,40.729772]]]]}},{"type":"Feature","properties":{"cell_id":"UZ-142","area_ha":10000,"country":"UZ","region":"Namangan","municipality":"Mingbulak"},"geometry":{"type":"MultiPolygon","coordinates":[[[[71.423474,40.909432],[71.542324,40.909432],[71.542324,40.819602],[71.423474,40.819602],[71.423474,40.909432]]]]}},{"type":"Feature","properties":{"cell_id":"UZ-143","area_ha":10000,"country":"UZ","region":"Namangan","municipality":"Mingbulak"},"geometry":{"type":"MultiPolygon","coordinates":[[[[71.423474,40.819602],[71.542324,40.819602],[71.542324,40.729772],[71.423474,40.729772],[71.423474,40.819602]]]]}},{"type":"Feature","properties":{"cell_id":"UZ-144","area_ha":10000,"country":"UZ","region":"Namangan","municipality":"Mingbulak"},"geometry":{"type":"MultiPolygon","coordinates":[[[[71.423474,40.729772],[71.542324,40.729772],[71.542324,40.639942],[71.423474,40.639942],[71.423474,40.729772]]]]}},{"type":"Feature","properties":{"cell_id":"UZ-157","area_ha":10000,"country":"UZ","region":"Namangan","municipality":"Mingbulak"},"geometry":{"type":"MultiPolygon","coordinates":[[[[71.542324,40.909432],[71.661174,40.909432],[71.661174,40.819602],[71.542324,40.819602],[71.542324,40.909432]]]]}},{"type":"Feature","properties":{"cell_id":"UZ-158","area_ha":10000,"country":"UZ","region":"Namangan","municipality":"Mingbulak"},"geometry":{"type":"MultiPolygon","coordinates":[[[[71.542324,40.819602],[71.661174,40.819602],[71.661174,40.729772],[71.542324,40.729772],[71.542324,40.819602]]]]}},{"type":"Feature","properties":{"cell_id":"UZ-263","area_ha":10000,"country":"UZ","region":"Andizhan","municipality":"Khadjaabad"},"geometry":{"type":"MultiPolygon","coordinates":[[[[72.374274,40.819602],[72.493124,40.819602],[72.493124,40.729772],[72.374274,40.729772],[72.374274,40.819602]]]]}},{"type":"Feature","properties":{"cell_id":"UZ-264","area_ha":10000,"country":"UZ","region":"Andizhan","municipality":"Khadjaabad"},"geometry":{"type":"MultiPolygon","coordinates":[[[[72.374274,40.729772],[72.493124,40.729772],[72.493124,40.639942],[72.374274,40.639942],[72.374274,40.729772]]]]}},{"type":"Feature","properties":{"cell_id":"UZ-281","area_ha":1206,"country":"UZ","region":"Andizhan","municipality":"Khadjaabad"},"geometry":{"type":"MultiPolygon","coordinates":[[[[72.611842,40.516526],[72.609063,40.517723],[72.608088,40.519514],[72.60693,40.521301],[72.607048,40.523114],[72.606648,40.524081],[72.604431,40.524871],[72.60113,40.52536],[72.59873,40.526146],[72.594655,40.527872],[72.590052,40.52903],[72.588091,40.530304],[72.587828,40.532526],[72.58594,40.534296],[72.58391,40.53495],[72.582077,40.53519],[72.580011,40.536817],[72.57752,40.540106],[72.575834,40.541323],[72.572542,40.541533],[72.570414,40.539817],[72.56975,40.537994],[72.567598,40.536974],[72.561728,40.537824],[72.556588,40.53869],[72.549396,40.540765],[72.544604,40.542055],[72.539514,40.54153],[72.536399,40.541881],[72.532499,40.543746],[72.531025,40.544132],[72.528826,40.544364],[72.525655,40.546245],[72.521613,40.546993],[72.517252,40.546482],[72.5141,40.547806],[72.511475,40.549699],[72.511382,40.550112],[72.611974,40.550112],[72.611974,40.5165],[72.611842,40.516526]]]]}},{"type":"Feature","properties":{"cell_id":"UZ-296","area_ha":1209,"country":"UZ","region":"Andizhan","municipality":"Khadjaabad"},"geometry":{"type":"MultiPolygon","coordinates":[[[[72.655131,40.546363],[72.65048,40.532152],[72.640868,40.519853],[72.629109,40.512711],[72.624872,40.514287],[72.619375,40.51501],[72.611974,40.5165],[72.611974,40.550112],[72.655471,40.550112],[72.655131,40.546363]]]]}},{"type":"Feature","properties":{"cell_id":"UZ-191","area_ha":10000,"country":"UZ","region":"Fergana","municipality":"Kuva"},"geometry":{"type":"MultiPolygon","coordinates":[[[[71.780024,40.550112],[71.898874,40.550112],[71.898874,40.460282],[71.780024,40.460282],[71.780024,40.550112]]]]}},{"type":"Feature","properties":{"cell_id":"UZ-192","area_ha":10000,"country":"UZ","region":"Fergana","municipality":"Kuva"},"geometry":{"type":"MultiPolygon","coordinates":[[[[71.780024,40.460282],[71.898874,40.460282],[71.898874,40.370452],[71.780024,40.370452],[71.780024,40.460282]]]]}},{"type":"Feature","properties":{"cell_id":"UZ-205","area_ha":10000,"country":"UZ","region":"Fergana","municipality":"Kuva"},"geometry":{"type":"MultiPolygon","coordinates":[[[[71.898874,40.639942],[72.017724,40.639942],[72.017724,40.550112],[71.898874,40.550112],[71.898874,40.639942]]]]}},{"type":"Feature","properties":{"cell_id":"UZ-206","area_ha":10000,"country":"UZ","region":"Fergana","municipality":"Kuva"},"geometry":{"type":"MultiPolygon","coordinates":[[[[71.898874,40.550112],[72.017724,40.550112],[72.017724,40.460282],[71.898874,40.460282],[71.898874,40.550112]]]]}},{"type":"Feature","properties":{"cell_id":"UZ-220","area_ha":10000,"country":"UZ","region":"Fergana","municipality":"Kuva"},"geometry":{"type":"MultiPolygon","coordinates":[[[[72.017724,40.639942],[72.136574,40.639942],[72.136574,40.550112],[72.017724,40.550112],[72.017724,40.639942]]]]}},{"type":"Feature","properties":{"cell_id":"UZ-221","area_ha":10000,"country":"UZ","region":"Fergana","municipality":"Kuva"},"geometry":{"type":"MultiPolygon","coordinates":[[[[72.131407,40.461932],[72.1289,40.460282],[72.017724,40.460282],[72.017724,40.550112],[72.136574,40.550112],[72.136574,40.46493],[72.131407,40.461932]]]]}},{"type":"Feature","properties":{"cell_id":"UZ-236","area_ha":7659,"country":"UZ","region":"Fergana","municipality":"Kuva"},"geometry":{"type":"MultiPolygon","coordinates":[[[[72.244208,40.4614],[72.244769,40.463234],[72.246039,40.46715],[72.248043,40.472541],[72.251659,40.477363],[72.251563,40.47973],[72.249583,40.481504],[72.243193,40.482323],[72.234963,40.483826],[72.224767,40.484432],[72.2192,40.485199],[72.215017,40.485776],[72.205461,40.486273],[72.202127,40.486193],[72.198597,40.483193],[72.196405,40.482411],[72.194182,40.482357],[72.191617,40.482902],[72.189338,40.484182],[72.187347,40.486576],[72.186509,40.491035],[72.186367,40.494431],[72.17305,40.49362],[72.172532,40.490815],[72.170923,40.487497],[72.169387,40.486245],[72.164726,40.483702],[72.159994,40.480975],[72.154438,40.477074],[72.148919,40.472324],[72.139934,40.46688],[72.136574,40.46493],[72.136574,40.550112],[72.255424,40.550112],[72.255424,40.460282],[72.244903,40.460282],[72.244208,40.4614]]]]}},{"type":"Feature","properties":{"cell_id":"UZ-175","area_ha":10000,"country":"UZ","region":"Fergana","municipality":"Tashlak"},"geometry":{"type":"MultiPolygon","coordinates":[[[[71.661174,40.639942],[71.780024,40.639942],[71.780024,40.550112],[71.661174,40.550112],[71.661174,40.639942]]]]}},{"type":"Feature","properties":{"cell_id":"UZ-176","area_ha":10000,"country":"UZ","region":"Fergana","municipality":"Tashlak"},"geometry":{"type":"MultiPolygon","coordinates":[[[[71.661174,40.550112],[71.780024,40.550112],[71.780024,40.460282],[71.661174,40.460282],[71.661174,40.550112]]]]}},{"type":"Feature","properties":{"cell_id":"UZ-189","area_ha":10000,"country":"UZ","region":"Fergana","municipality":"Tashlak"},"geometry":{"type":"MultiPolygon","coordinates":[[[[71.780024,40.729772],[71.898874,40.729772],[71.898874,40.639942],[71.780024,40.639942],[71.780024,40.729772]]]]}},{"type":"Feature","properties":{"cell_id":"UZ-190","area_ha":10000,"country":"UZ","region":"Fergana","municipality":"Tashlak"},"geometry":{"type":"MultiPolygon","coordinates":[[[[71.780024,40.639942],[71.898874,40.639942],[71.898874,40.550112],[71.780024,40.550112],[71.780024,40.639942]]]]}},{"type":"Feature","properties":{"cell_id":"UZ-204","area_ha":10000,"country":"UZ","region":"Fergana","municipality":"Tashlak"},"geometry":{"type":"MultiPolygon","coordinates":[[[[71.898874,40.729772],[72.017724,40.729772],[72.017724,40.639942],[71.898874,40.639942],[71.898874,40.729772]]]]}},{"type":"Feature","properties":{"cell_id":"UZ-177","area_ha":10000,"country":"UZ","region":"Fergana","municipality":"Margilan"},"geometry":{"type":"MultiPolygon","coordinates":[[[[71.661174,40.460282],[71.780024,40.460282],[71.780024,40.370452],[71.661174,40.370452],[71.661174,40.460282]]]]}},{"type":"Feature","properties":{"cell_id":"UZ-250","area_ha":9122,"country":"UZ","region":"Andizhan","municipality":"Markhamat"},"geometry":{"type":"MultiPolygon","coordinates":[[[[72.358387,40.604196],[72.356817,40.604089],[72.352653,40.604722],[72.348339,40.605109],[72.343904,40.604521],[72.343629,40.603422],[72.346082,40.601779],[72.350468,40.599572],[72.351263,40.5989],[72.348509,40.585508],[72.348483,40.585379],[72.369928,40.557931],[72.370083,40.557732],[72.370039,40.550112],[72.255424,40.550112],[72.255424,40.639942],[72.374274,40.639942],[72.374274,40.609648],[72.358387,40.604196]]]]}},{"type":"Feature","properties":{"cell_id":"UZ-251","area_ha":10000,"country":"UZ","region":"Andizhan","municipality":"Markhamat"},"geometry":{"type":"MultiPolygon","coordinates":[[[[72.36998,40.539852],[72.363262,40.523574],[72.363467,40.51241],[72.363469,40.512309],[72.372254,40.503265],[72.374274,40.502149],[72.374274,40.460282],[72.255424,40.460282],[72.255424,40.550112],[72.370039,40.550112],[72.36998,40.539852]]]]}},{"type":"Feature","properties":{"cell_id":"UZ-252","area_ha":3099,"country":"UZ","region":"Andizhan","municipality":"Markhamat"},"geometry":{"type":"MultiPolygon","coordinates":[[[[72.374151,40.401741],[72.369033,40.402718],[72.365348,40.403605],[72.36371,40.404904],[72.363163,40.406713],[72.360758,40.411394],[72.355329,40.416248],[72.346903,40.422188],[72.340679,40.427024],[72.332685,40.432426],[72.324103,40.436599],[72.318727,40.439996],[72.315284,40.442709],[72.312465,40.445679],[72.310874,40.445763],[72.309661,40.445492],[72.306892,40.443242],[72.304802,40.439915],[72.302658,40.437922],[72.300442,40.437748],[72.296758,40.438512],[72.293888,40.438809],[72.290004,40.436654],[72.287153,40.436466],[72.283494,40.436622],[72.282071,40.436467],[72.278615,40.435536],[72.276557,40.435366],[72.274421,40.437137],[72.273016,40.440468],[72.271604,40.443956],[72.269082,40.447418],[72.267679,40.450664],[72.263916,40.453368],[72.261189,40.454021],[72.260227,40.454252],[72.255888,40.455485],[72.255424,40.45573],[72.255424,40.460282],[72.374274,40.460282],[72.374274,40.401691],[72.374151,40.401741]]]]}},{"type":"Feature","properties":{"cell_id":"UZ-265","area_ha":5545,"country":"UZ","region":"Andizhan","municipality":"Markhamat"},"geometry":{"type":"MultiPolygon","coordinates":[[[[72.492141,40.568407],[72.490647,40.565824],[72.488212,40.562857],[72.487171,40.560891],[72.486595,40.5593],[72.486654,40.557722],[72.482462,40.554959],[72.476558,40.551187],[72.473433,40.553912],[72.466038,40.56015],[72.459954,40.565359],[72.454547,40.569491],[72.451878,40.57271],[72.450795,40.576087],[72.44944,40.578243],[72.446163,40.58072],[72.444065,40.585653],[72.441018,40.590442],[72.43673,40.595994],[72.433214,40.600531],[72.428457,40.604189],[72.4223,40.606966],[72.418716,40.609072],[72.416096,40.610956],[72.414093,40.61334],[72.412849,40.616712],[72.411192,40.618375],[72.408969,40.618204],[72.404851,40.617626],[72.399788,40.616783],[72.394552,40.616301],[72.392068,40.614666],[72.388789,40.613013],[72.386407,40.612838],[72.383717,40.612413],[72.38396,40.610539],[72.381556,40.612148],[72.374274,40.609648],[72.374274,40.639942],[72.493124,40.639942],[72.493124,40.570558],[72.492141,40.568407]]]]}},{"type":"Feature","properties":{"cell_id":"UZ-266","area_ha":1276,"country":"UZ","region":"Andizhan","municipality":"Markhamat"},"geometry":{"type":"MultiPolygon","coordinates":[[[[72.415585,40.47933],[72.415662,40.479287],[72.420028,40.471027],[72.425707,40.460282],[72.374274,40.460282],[72.374274,40.502149],[72.415585,40.47933]]]]}},{"type":"Feature","properties":{"cell_id":"UZ-267","area_ha":2174,"country":"UZ","region":"Andizhan","municipality":"Markhamat"},"geometry":{"type":"MultiPolygon","coordinates":[[[[72.426096,40.459545],[72.426204,40.45934],[72.425977,40.454201],[72.42438,40.453947],[72.423288,40.453437],[72.420968,40.451807],[72.418629,40.450662],[72.416415,40.446241],[72.415127,40.442569],[72.413136,40.44063],[72.411288,40.439131],[72.40999,40.435702],[72.40621,40.426631],[72.404806,40.421864],[72.405244,40.418716],[72.40878,40.413452],[72.412408,40.408607],[72.402521,40.398268],[72.399651,40.399039],[72.394913,40.398447],[72.390179,40.397733],[72.386027,40.398367],[72.382482,40.399744],[72.377538,40.400361],[72.374274,40.401691],[72.374274,40.460282],[72.425707,40.460282],[72.426096,40.459545]]]]}},{"type":"Feature","properties":{"cell_id":"UZ-219","area_ha":10000,"country":"UZ","region":"Andizhan","municipality":"Asaka"},"geometry":{"type":"MultiPolygon","coordinates":[[[[72.017724,40.729772],[72.136574,40.729772],[72.136574,40.639942],[72.017724,40.639942],[72.017724,40.729772]]]]}},{"type":"Feature","properties":{"cell_id":"UZ-233","area_ha":10000,"country":"UZ","region":"Andizhan","municipality":"Asaka"},"geometry":{"type":"MultiPolygon","coordinates":[[[[72.136574,40.819602],[72.255424,40.819602],[72.255424,40.729772],[72.136574,40.729772],[72.136574,40.819602]]]]}},{"type":"Feature","properties":{"cell_id":"UZ-234","area_ha":10000,"country":"UZ","region":"Andizhan","municipality":"Asaka"},"geometry":{"type":"MultiPolygon","coordinates":[[[[72.136574,40.729772],[72.255424,40.729772],[72.255424,40.639942],[72.136574,40.639942],[72.136574,40.729772]]]]}},{"type":"Feature","properties":{"cell_id":"UZ-235","area_ha":10000,"country":"UZ","region":"Andizhan","municipality":"Asaka"},"geometry":{"type":"MultiPolygon","coordinates":[[[[72.136574,40.639942],[72.255424,40.639942],[72.255424,40.550112],[72.136574,40.550112],[72.136574,40.639942]]]]}},{"type":"Feature","properties":{"cell_id":"UZ-248","area_ha":10000,"country":"UZ","region":"Andizhan","municipality":"Asaka"},"geometry":{"type":"MultiPolygon","coordinates":[[[[72.255424,40.819602],[72.374274,40.819602],[72.374274,40.729772],[72.255424,40.729772],[72.255424,40.819602]]]]}},{"type":"Feature","properties":{"cell_id":"UZ-249","area_ha":10000,"country":"UZ","region":"Andizhan","municipality":"Asaka"},"geometry":{"type":"MultiPolygon","coordinates":[[[[72.255424,40.729772],[72.374274,40.729772],[72.374274,40.639942],[72.255424,40.639942],[72.255424,40.729772]]]]}},{"type":"Feature","properties":{"cell_id":"UZ-188","area_ha":10000,"country":"UZ","region":"Andizhan","municipality":"Shakhrixan"},"geometry":{"type":"MultiPolygon","coordinates":[[[[71.780024,40.819602],[71.898874,40.819602],[71.898874,40.729772],[71.780024,40.729772],[71.780024,40.819602]]]]}},{"type":"Feature","properties":{"cell_id":"UZ-279","area_ha":10000,"country":"UZ","region":"Andizhan","municipality":"Djalalkudu"},"geometry":{"type":"MultiPolygon","coordinates":[[[[72.493124,40.729772],[72.611974,40.729772],[72.611974,40.639942],[72.493124,40.639942],[72.493124,40.729772]]]]}},{"type":"Feature","properties":{"cell_id":"UZ-292","area_ha":3389,"country":"UZ","region":"Andizhan","municipality":"Djalalkudu"},"geometry":{"type":"MultiPolygon","coordinates":[[[[72.612907,40.864601],[72.615157,40.864283],[72.618406,40.862892],[72.623728,40.861665],[72.629849,40.860455],[72.633067,40.859914],[72.638034,40.859651],[72.641434,40.858505],[72.645351,40.856277],[72.650007,40.855764],[72.652754,40.85497],[72.655412,40.854416],[72.659567,40.854501],[72.665,40.852516],[72.667529,40.850957],[72.672749,40.848245],[72.678112,40.846474],[72.68025,40.84598],[72.68347,40.844837],[72.690208,40.844168],[72.693763,40.843568],[72.696602,40.843222],[72.700352,40.842089],[72.703721,40.841754],[72.706917,40.841281],[72.712275,40.839643],[72.716726,40.838657],[72.721488,40.838886],[72.725205,40.838691],[72.728732,40.838895],[72.730312,40.839194],[72.730824,40.83919],[72.730824,40.819602],[72.611974,40.819602],[72.611974,40.864623],[72.612907,40.864601]]]]}},{"type":"Feature","properties":{"cell_id":"UZ-293","area_ha":10000,"country":"UZ","region":"Andizhan","municipality":"Djalalkudu"},"geometry":{"type":"MultiPolygon","coordinates":[[[[72.611974,40.819602],[72.730824,40.819602],[72.730824,40.729772],[72.611974,40.729772],[72.611974,40.819602]]]]}},{"type":"Feature","properties":{"cell_id":"UZ-294","area_ha":10000,"country":"UZ","region":"Andizhan","municipality":"Djalalkudu"},"geometry":{"type":"MultiPolygon","coordinates":[[[[72.611974,40.729772],[72.730824,40.729772],[72.730824,40.639942],[72.611974,40.639942],[72.611974,40.729772]]]]}},{"type":"Feature","properties":{"cell_id":"UZ-295","area_ha":7569,"country":"UZ","region":"Andizhan","municipality":"Djalalkudu"},"geometry":{"type":"MultiPolygon","coordinates":[[[[72.725992,40.585605],[72.721959,40.586083],[72.719802,40.585065],[72.717717,40.581959],[72.714345,40.579106],[72.706954,40.576312],[72.703507,40.575686],[72.702187,40.576914],[72.703316,40.581255],[72.703524,40.585857],[72.702166,40.588198],[72.698339,40.593277],[72.694771,40.596131],[72.691813,40.597187],[72.689349,40.59449],[72.688259,40.594329],[72.684201,40.595502],[72.679197,40.592336],[72.668638,40.586133],[72.66401,40.582696],[72.663871,40.581439],[72.666661,40.579963],[72.669096,40.578201],[72.669382,40.577753],[72.664226,40.577783],[72.656474,40.561143],[72.655471,40.550112],[72.611974,40.550112],[72.611974,40.639942],[72.730824,40.639942],[72.730824,40.584295],[72.725992,40.585605]]]]}},{"type":"Feature","properties":{"cell_id":"UZ-307","area_ha":3528,"country":"UZ","region":"Andizhan","municipality":"Djalalkudu"},"geometry":{"type":"MultiPolygon","coordinates":[[[[72.735084,40.839154],[72.740358,40.839928],[72.744745,40.840819],[72.749327,40.841177],[72.7516,40.841892],[72.756177,40.842384],[72.760021,40.843667],[72.764228,40.844688],[72.76929,40.84653],[72.77472,40.847977],[72.777337,40.848967],[72.780476,40.850235],[72.784149,40.851379],[72.788846,40.853616],[72.793382,40.852887],[72.797808,40.852036],[72.799398,40.852309],[72.803461,40.855182],[72.806977,40.855249],[72.811752,40.855947],[72.812218,40.855996],[72.81733,40.856539],[72.821154,40.856975],[72.826081,40.857919],[72.8313,40.859718],[72.834605,40.86136],[72.837427,40.863114],[72.842519,40.863939],[72.847618,40.86452],[72.849674,40.865311],[72.849674,40.819602],[72.730824,40.819602],[72.730824,40.83919],[72.735084,40.839154]]]]}},{"type":"Feature","properties":{"cell_id":"UZ-308","area_ha":10000,"country":"UZ","region":"Andizhan","municipality":"Djalalkudu"},"geometry":{"type":"MultiPolygon","coordinates":[[[[72.730824,40.819602],[72.849674,40.819602],[72.849674,40.729772],[72.730824,40.729772],[72.730824,40.819602]]]]}},{"type":"Feature","properties":{"cell_id":"UZ-309","area_ha":7226,"country":"UZ","region":"Andizhan","municipality":"Djalalkudu"},"geometry":{"type":"MultiPolygon","coordinates":[[[[72.818945,40.681084],[72.806367,40.676984],[72.803419,40.67706],[72.801101,40.676222],[72.79995,40.674892],[72.783908,40.669663],[72.777891,40.66263],[72.776042,40.660469],[72.760034,40.641758],[72.759716,40.639942],[72.730824,40.639942],[72.730824,40.729772],[72.849674,40.729772],[72.849674,40.687058],[72.818945,40.681084]]]]}},{"type":"Feature","properties":{"cell_id":"UZ-310","area_ha":1250,"country":"UZ","region":"Andizhan","municipality":"Djalalkudu"},"geometry":{"type":"MultiPolygon","coordinates":[[[[72.755621,40.616573],[72.752757,40.61246],[72.750163,40.608091],[72.75021,40.606699],[72.751174,40.605185],[72.751052,40.603371],[72.750284,40.599038],[72.750406,40.595418],[72.750878,40.592223],[72.751234,40.591531],[72.74841,40.575408],[72.747148,40.578218],[72.743728,40.582191],[72.740958,40.583112],[72.737044,40.582757],[72.73318,40.583657],[72.730824,40.584295],[72.730824,40.639942],[72.759716,40.639942],[72.755621,40.616573]]]]}},{"type":"Feature","properties":{"cell_id":"UZ-280","area_ha":10000,"country":"UZ","region":"Andizhan","municipality":"Bulakbashi"},"geometry":{"type":"MultiPolygon","coordinates":[[[[72.511257,40.550668],[72.51243,40.553478],[72.511613,40.555827],[72.510452,40.557612],[72.508374,40.559516],[72.507744,40.561729],[72.503363,40.566646],[72.500023,40.570399],[72.498256,40.570846],[72.495858,40.571159],[72.493318,40.570982],[72.493124,40.570558],[72.493124,40.639942],[72.611974,40.639942],[72.611974,40.550112],[72.511382,40.550112],[72.511257,40.550668]]]]}},{"type":"Feature","properties":{"cell_id":"UZ-322","area_ha":1001,"country":"UZ","region":"Andizhan","municipality":"Kurgantepa"},"geometry":{"type":"MultiPolygon","coordinates":[[[[72.850936,40.865797],[72.853973,40.865854],[72.858781,40.865578],[72.864095,40.864462],[72.869132,40.860922],[72.872998,40.834821],[72.870541,40.819602],[72.849674,40.819602],[72.849674,40.865311],[72.850936,40.865797]]],[[[72.883127,40.819628],[72.89827,40.827656],[72.900441,40.825822],[72.902431,40.823549],[72.903462,40.821259],[72.903029,40.819793],[72.902903,40.819602],[72.882889,40.819602],[72.883127,40.819628]]],[[[72.962398,40.820736],[72.965571,40.821521],[72.967823,40.821075],[72.968524,40.820975],[72.968524,40.819602],[72.961116,40.819602],[72.962398,40.820736]]]]}},{"type":"Feature","properties":{"cell_id":"UZ-323","area_ha":8934,"country":"UZ","region":"Andizhan","municipality":"Kurgantepa"},"geometry":{"type":"MultiPolygon","coordinates":[[[[72.870311,40.818181],[72.882889,40.819602],[72.902903,40.819602],[72.900284,40.815612],[72.89798,40.812654],[72.898828,40.81109],[72.901878,40.810659],[72.906362,40.810376],[72.908469,40.809442],[72.910599,40.80778],[72.913333,40.807222],[72.917144,40.80802],[72.919525,40.808549],[72.924194,40.807418],[72.928552,40.806038],[72.934351,40.804562],[72.939105,40.805862],[72.946935,40.805881],[72.954914,40.8042],[72.957543,40.807041],[72.957368,40.812749],[72.959597,40.818256],[72.961116,40.819602],[72.968524,40.819602],[72.968524,40.753707],[72.966239,40.75247],[72.95606,40.74415],[72.949465,40.738077],[72.94618,40.734644],[72.933452,40.733027],[72.926535,40.729772],[72.849674,40.729772],[72.849674,40.819602],[72.870541,40.819602],[72.870311,40.818181]]]]}},{"type":"Feature","properties":{"cell_id":"UZ-324","area_ha":1033,"country":"UZ","region":"Andizhan","municipality":"Kurgantepa"},"geometry":{"type":"MultiPolygon","coordinates":[[[[72.924366,40.728751],[72.919265,40.725086],[72.917274,40.724994],[72.911832,40.723903],[72.905389,40.723986],[72.899992,40.721508],[72.897144,40.720861],[72.889154,40.717937],[72.881952,40.71483],[72.874472,40.712312],[72.869242,40.712811],[72.859049,40.713614],[72.85739,40.70603],[72.85842,40.700708],[72.863637,40.700606],[72.859907,40.694902],[72.85668,40.689964],[72.855743,40.688238],[72.849674,40.687058],[72.849674,40.729772],[72.926535,40.729772],[72.924366,40.728751]]]]}},{"type":"Feature","properties":{"cell_id":"UZ-352","area_ha":959,"country":"UZ","region":"Andizhan","municipality":"Kurgantepa"},"geometry":{"type":"MultiPolygon","coordinates":[[[[73.112467,40.839162],[73.135042,40.835274],[73.143292,40.833853],[73.14337,40.833839],[73.147093,40.819602],[73.087374,40.819602],[73.087374,40.837951],[73.112467,40.839162]]]]}},{"type":"Feature","properties":{"cell_id":"UZ-353","area_ha":1791,"country":"UZ","region":"Andizhan","municipality":"Kurgantepa"},"geometry":{"type":"MultiPolygon","coordinates":[[[[73.147547,40.817866],[73.147151,40.817393],[73.142855,40.813815],[73.139915,40.808922],[73.139831,40.804831],[73.119538,40.784436],[73.116538,40.783165],[73.110242,40.780558],[73.104371,40.778458],[73.100066,40.775382],[73.099351,40.774873],[73.089441,40.770598],[73.088345,40.770513],[73.087374,40.770497],[73.087374,40.819602],[73.147093,40.819602],[73.147547,40.817866]]]]}},{"type":"Feature","properties":{"cell_id":"UZ-80","area_ha":1780,"country":"UZ","region":"Namangan","municipality":"Chust"},"geometry":{"type":"MultiPolygon","coordinates":[[[[71.027857,41.004332],[71.020332,41.016157],[71.027857,41.026907],[71.048169,41.040679],[71.048169,41.052493],[71.066924,41.06078],[71.066924,40.999262],[71.010616,40.999262],[71.027857,41.004332]]]]}},{"type":"Feature","properties":{"cell_id":"UZ-94","area_ha":3315,"country":"UZ","region":"Namangan","municipality":"Chust"},"geometry":{"type":"MultiPolygon","coordinates":[[[[71.097695,41.095204],[71.109963,41.103837],[71.114961,41.120194],[71.106328,41.141549],[71.08896,41.161709],[71.093812,41.161212],[71.094984,41.160351],[71.097861,41.158182],[71.100166,41.157222],[71.1034,41.157426],[71.105145,41.157485],[71.105409,41.155133],[71.108352,41.151832],[71.114763,41.144777],[71.11695,41.145795],[71.119631,41.146924],[71.120758,41.146868],[71.122297,41.146164],[71.123802,41.143948],[71.124322,41.143588],[71.126294,41.144032],[71.132416,41.148205],[71.135789,41.150423],[71.139099,41.148394],[71.164421,41.116199],[71.18013,41.108138],[71.185774,41.119247],[71.185774,41.089092],[71.095798,41.089092],[71.097695,41.095204]]],[[[71.183024,41.166377],[71.185458,41.178922],[71.185774,41.178922],[71.185774,41.156226],[71.183024,41.166377]]]]}},{"type":"Feature","properties":{"cell_id":"UZ-95","area_ha":9473,"country":"UZ","region":"Namangan","municipality":"Chust"},"geometry":{"type":"MultiPolygon","coordinates":[[[[71.067707,41.061126],[71.084064,41.070668],[71.093606,41.082027],[71.095798,41.089092],[71.185774,41.089092],[71.185774,40.999262],[71.066924,40.999262],[71.066924,41.06078],[71.067707,41.061126]]]]}},{"type":"Feature","properties":{"cell_id":"UZ-108","area_ha":274,"country":"UZ","region":"Namangan","municipality":"Chust"},"geometry":{"type":"MultiPolygon","coordinates":[[[[71.206382,41.188753],[71.214386,41.188249],[71.218664,41.185659],[71.225083,41.182658],[71.228916,41.181178],[71.231394,41.181543],[71.233573,41.182748],[71.233932,41.183235],[71.237988,41.178922],[71.185774,41.178922],[71.185774,41.180252],[71.206382,41.188753]]]]}},{"type":"Feature","properties":{"cell_id":"UZ-109","area_ha":6868,"country":"UZ","region":"Namangan","municipality":"Chust"},"geometry":{"type":"MultiPolygon","coordinates":[[[[71.189949,41.127465],[71.187882,41.148446],[71.185774,41.156226],[71.185774,41.178922],[71.237988,41.178922],[71.241522,41.175162],[71.253821,41.13749],[71.263381,41.123486],[71.276145,41.113151],[71.289478,41.113874],[71.297275,41.127781],[71.301053,41.128108],[71.303898,41.128577],[71.304624,41.128825],[71.304624,41.089092],[71.185774,41.089092],[71.185774,41.119247],[71.189949,41.127465]]]]}},{"type":"Feature","properties":{"cell_id":"UZ-110","area_ha":10000,"country":"UZ","region":"Namangan","municipality":"Chust"},"geometry":{"type":"MultiPolygon","coordinates":[[[[71.185774,41.089092],[71.304624,41.089092],[71.304624,40.999262],[71.185774,40.999262],[71.185774,41.089092]]]]}},{"type":"Feature","properties":{"cell_id":"UZ-124","area_ha":4759,"country":"UZ","region":"Namangan","municipality":"Chust"},"geometry":{"type":"MultiPolygon","coordinates":[[[[71.308185,41.130037],[71.31152,41.132883],[71.311892,41.135162],[71.31264,41.139625],[71.313757,41.144194],[71.315283,41.147667],[71.321085,41.153301],[71.324152,41.152686],[71.334498,41.151298],[71.393657,41.112737],[71.398266,41.115743],[71.400618,41.112583],[71.404117,41.11477],[71.410281,41.118457],[71.418835,41.124108],[71.423474,41.127596],[71.423474,41.089092],[71.304624,41.089092],[71.304624,41.128825],[71.308185,41.130037]]]]}},{"type":"Feature","properties":{"cell_id":"UZ-125","area_ha":10000,"country":"UZ","region":"Namangan","municipality":"Chust"},"geometry":{"type":"MultiPolygon","coordinates":[[[[71.304624,41.089092],[71.423474,41.089092],[71.423474,40.999262],[71.304624,40.999262],[71.304624,41.089092]]]]}},{"type":"Feature","properties":{"cell_id":"UZ-155","area_ha":10000,"country":"UZ","region":"Namangan","municipality":"Namangan"},"geometry":{"type":"MultiPolygon","coordinates":[[[[71.542324,41.089092],[71.661174,41.089092],[71.661174,40.999262],[71.542324,40.999262],[71.542324,41.089092]]]]}},{"type":"Feature","properties":{"cell_id":"UZ-156","area_ha":10000,"country":"UZ","region":"Namangan","municipality":"Namangan"},"geometry":{"type":"MultiPolygon","coordinates":[[[[71.542324,40.999262],[71.661174,40.999262],[71.661174,40.909432],[71.542324,40.909432],[71.542324,40.999262]]]]}},{"type":"Feature","properties":{"cell_id":"UZ-126","area_ha":10000,"country":"UZ","region":"Namangan","municipality":"Turakurgan"},"geometry":{"type":"MultiPolygon","coordinates":[[[[71.304624,40.999262],[71.423474,40.999262],[71.423474,40.909432],[71.304624,40.909432],[71.304624,40.999262]]]]}},{"type":"Feature","properties":{"cell_id":"UZ-139","area_ha":9129,"country":"UZ","region":"Namangan","municipality":"Turakurgan"},"geometry":{"type":"MultiPolygon","coordinates":[[[[71.425911,41.129428],[71.432857,41.134838],[71.434126,41.136767],[71.439171,41.145045],[71.443836,41.150441],[71.448209,41.155015],[71.45239,41.158544],[71.449782,41.158275],[71.452262,41.160902],[71.451267,41.163138],[71.448745,41.165893],[71.443497,41.170548],[71.437114,41.175394],[71.433603,41.177929],[71.433105,41.178922],[71.542324,41.178922],[71.542324,41.089092],[71.423474,41.089092],[71.423474,41.127596],[71.425911,41.129428]]]]}},{"type":"Feature","properties":{"cell_id":"UZ-140","area_ha":10000,"country":"UZ","region":"Namangan","municipality":"Turakurgan"},"geometry":{"type":"MultiPolygon","coordinates":[[[[71.423474,41.089092],[71.542324,41.089092],[71.542324,40.999262],[71.423474,40.999262],[71.423474,41.089092]]]]}},{"type":"Feature","properties":{"cell_id":"UZ-141","area_ha":10000,"country":"UZ","region":"Namangan","municipality":"Turakurgan"},"geometry":{"type":"MultiPolygon","coordinates":[[[[71.423474,40.999262],[71.542324,40.999262],[71.542324,40.909432],[71.423474,40.909432],[71.423474,40.999262]]]]}},{"type":"Feature","properties":{"cell_id":"UZ-187","area_ha":10000,"country":"UZ","region":"Andizhan","municipality":"Balikchi"},"geometry":{"type":"MultiPolygon","coordinates":[[[[71.780024,40.909432],[71.898874,40.909432],[71.898874,40.819602],[71.780024,40.819602],[71.780024,40.909432]]]]}},{"type":"Feature","properties":{"cell_id":"UZ-151","area_ha":359,"country":"UZ","region":"Namangan","municipality":"Yangikurgan"},"geometry":{"type":"MultiPolygon","coordinates":[[[[71.64344,41.359489],[71.647108,41.364343],[71.651697,41.371149],[71.656058,41.379102],[71.65906,41.38368],[71.659635,41.38575],[71.6587,41.38739],[71.658457,41.388795],[71.658909,41.389963],[71.657659,41.391081],[71.651396,41.393593],[71.647746,41.394986],[71.646823,41.396371],[71.647588,41.398062],[71.651069,41.399961],[71.656899,41.40257],[71.661174,41.404748],[71.661174,41.358582],[71.642507,41.358582],[71.64344,41.359489]]]]}},{"type":"Feature","properties":{"cell_id":"UZ-137","area_ha":3189,"country":"UZ","region":"Namangan","municipality":"Kasansay"},"geometry":{"type":"MultiPolygon","coordinates":[[[[71.442852,41.27],[71.443785,41.271257],[71.441598,41.27236],[71.438179,41.273104],[71.437577,41.274974],[71.432776,41.278131],[71.430509,41.280705],[71.430303,41.284476],[71.431584,41.286216],[71.434721,41.290658],[71.436571,41.293455],[71.440415,41.296407],[71.442831,41.297993],[71.44556,41.298455],[71.449351,41.300084],[71.452607,41.302356],[71.454583,41.305156],[71.456251,41.306719],[71.458089,41.307437],[71.46232,41.307897],[71.463498,41.309256],[71.465817,41.310366],[71.470645,41.311364],[71.473109,41.312101],[71.474764,41.311585],[71.477592,41.307894],[71.480223,41.305519],[71.482182,41.303312],[71.483864,41.299963],[71.48506,41.298678],[71.488849,41.298038],[71.493028,41.297126],[71.497551,41.296792],[71.499821,41.296483],[71.502238,41.298137],[71.507215,41.30103],[71.508758,41.301576],[71.52383,41.296654],[71.527528,41.297203],[71.527981,41.296499],[71.529339,41.295089],[71.530304,41.294811],[71.532378,41.294213],[71.53576,41.29496],[71.541258,41.296093],[71.542324,41.296313],[71.542324,41.268752],[71.441095,41.268752],[71.442852,41.27]]]]}},{"type":"Feature","properties":{"cell_id":"UZ-138","area_ha":8315,"country":"UZ","region":"Namangan","municipality":"Kasansay"},"geometry":{"type":"MultiPolygon","coordinates":[[[[71.432062,41.180998],[71.431269,41.184091],[71.432648,41.186306],[71.433263,41.18878],[71.433619,41.191436],[71.436755,41.193517],[71.44168,41.197164],[71.445763,41.200218],[71.452373,41.202783],[71.456717,41.205656],[71.457712,41.208048],[71.457772,41.211582],[71.457873,41.214324],[71.457232,41.216949],[71.457099,41.2194],[71.457013,41.221003],[71.455558,41.22247],[71.452227,41.223973],[71.448505,41.225747],[71.446572,41.22682],[71.446469,41.228706],[71.44785,41.230921],[71.447798,41.231864],[71.44547,41.233303],[71.43698,41.237668],[71.435416,41.241152],[71.435771,41.243807],[71.436194,41.245237],[71.434796,41.247933],[71.434034,41.250459],[71.433921,41.252534],[71.43552,41.255322],[71.436931,41.256972],[71.438847,41.258542],[71.439634,41.260172],[71.439437,41.261488],[71.43883,41.263453],[71.439731,41.265275],[71.440477,41.26766],[71.441045,41.268716],[71.441095,41.268752],[71.542324,41.268752],[71.542324,41.178922],[71.433105,41.178922],[71.432062,41.180998]]]]}},{"type":"Feature","properties":{"cell_id":"UZ-152","area_ha":6224,"country":"UZ","region":"Namangan","municipality":"Kasansay"},"geometry":{"type":"MultiPolygon","coordinates":[[[[71.544008,41.296659],[71.546432,41.295281],[71.55,41.292486],[71.553035,41.291296],[71.555622,41.290889],[71.560087,41.291346],[71.563878,41.292427],[71.568456,41.294822],[71.573581,41.299009],[71.580058,41.305977],[71.58516,41.310646],[71.589032,41.313504],[71.593997,41.316717],[71.598296,41.320393],[71.599084,41.321707],[71.600691,41.323691],[71.603506,41.327146],[71.607158,41.330964],[71.608561,41.332781],[71.609742,41.334751],[71.609192,41.33693],[71.610233,41.343119],[71.61183,41.348426],[71.615014,41.349418],[71.61712,41.348197],[71.618823,41.344911],[71.620145,41.342384],[71.622474,41.340143],[71.625404,41.339459],[71.628457,41.339677],[71.630764,41.341156],[71.633815,41.34471],[71.636375,41.3512],[71.639224,41.355389],[71.642507,41.358582],[71.661174,41.358582],[71.661174,41.268752],[71.542324,41.268752],[71.542324,41.296313],[71.544008,41.296659]]]]}},{"type":"Feature","properties":{"cell_id":"UZ-153","area_ha":10000,"country":"UZ","region":"Namangan","municipality":"Kasansay"},"geometry":{"type":"MultiPolygon","coordinates":[[[[71.542324,41.268752],[71.661174,41.268752],[71.661174,41.178922],[71.542324,41.178922],[71.542324,41.268752]]]]}},{"type":"Feature","properties":{"cell_id":"UZ-154","area_ha":10000,"country":"UZ","region":"Namangan","municipality":"Kasansay"},"geometry":{"type":"MultiPolygon","coordinates":[[[[71.542324,41.178922],[71.661174,41.178922],[71.661174,41.089092],[71.542324,41.089092],[71.542324,41.178922]]]]}},{"type":"Feature","properties":{"cell_id":"UZ-166","area_ha":7082,"country":"UZ","region":"Namangan","municipality":"Chartak"},"geometry":{"type":"MultiPolygon","coordinates":[[[[71.663043,41.405701],[71.668102,41.410084],[71.672016,41.413536],[71.675387,41.417613],[71.675747,41.420576],[71.675635,41.422755],[71.674572,41.424752],[71.681443,41.422847],[71.685407,41.42834],[71.685203,41.428013],[71.683514,41.424369],[71.68331,41.421668],[71.686537,41.418551],[71.690994,41.4147],[71.697316,41.41103],[71.70295,41.407469],[71.70717,41.404894],[71.710625,41.403966],[71.714532,41.404206],[71.717884,41.405329],[71.721845,41.407881],[71.723614,41.409986],[71.723334,41.41216],[71.719265,41.415125],[71.712002,41.420566],[71.70743,41.426726],[71.705906,41.429892],[71.705855,41.434255],[71.705798,41.438747],[71.705662,41.441439],[71.705558,41.44349],[71.706704,41.444138],[71.706868,41.444086],[71.712242,41.428015],[71.721648,41.424759],[71.729709,41.430082],[71.730089,41.441151],[71.731417,41.441276],[71.733913,41.442502],[71.733161,41.443893],[71.733064,41.445816],[71.735718,41.447304],[71.738561,41.448412],[71.743943,41.44651],[71.747704,41.442894],[71.749284,41.438573],[71.750019,41.434101],[71.750952,41.425654],[71.751381,41.417065],[71.75219,41.41452],[71.754964,41.413571],[71.758513,41.414185],[71.760989,41.415795],[71.762066,41.418136],[71.761976,41.419931],[71.759951,41.422955],[71.757244,41.42596],[71.757187,41.427114],[71.7603,41.429641],[71.765464,41.433473],[71.780024,41.417109],[71.780024,41.358582],[71.661174,41.358582],[71.661174,41.404748],[71.663043,41.405701]]]]}},{"type":"Feature","properties":{"cell_id":"UZ-167","area_ha":10000,"country":"UZ","region":"Namangan","municipality":"Chartak"},"geometry":{"type":"MultiPolygon","coordinates":[[[[71.661174,41.358582],[71.780024,41.358582],[71.780024,41.268752],[71.661174,41.268752],[71.661174,41.358582]]]]}},{"type":"Feature","properties":{"cell_id":"UZ-168","area_ha":10000,"country":"UZ","region":"Namangan","municipality":"Chartak"},"geometry":{"type":"MultiPolygon","coordinates":[[[[71.661174,41.268752],[71.780024,41.268752],[71.780024,41.178922],[71.661174,41.178922],[71.661174,41.268752]]]]}},{"type":"Feature","properties":{"cell_id":"UZ-169","area_ha":10000,"country":"UZ","region":"Namangan","municipality":"Chartak"},"geometry":{"type":"MultiPolygon","coordinates":[[[[71.661174,41.178922],[71.780024,41.178922],[71.780024,41.089092],[71.661174,41.089092],[71.661174,41.178922]]]]}},{"type":"Feature","properties":{"cell_id":"UZ-170","area_ha":10000,"country":"UZ","region":"Namangan","municipality":"Chartak"},"geometry":{"type":"MultiPolygon","coordinates":[[[[71.661174,41.089092],[71.780024,41.089092],[71.780024,40.999262],[71.661174,40.999262],[71.661174,41.089092]]]]}},{"type":"Feature","properties":{"cell_id":"UZ-181","area_ha":1416,"country":"UZ","region":"Namangan","municipality":"Chartak"},"geometry":{"type":"MultiPolygon","coordinates":[[[[71.8321,41.358582],[71.780024,41.358582],[71.780024,41.417109],[71.8321,41.358582]]]]}},{"type":"Feature","properties":{"cell_id":"UZ-182","area_ha":6490,"country":"UZ","region":"Namangan","municipality":"Chartak"},"geometry":{"type":"MultiPolygon","coordinates":[[[[71.847015,41.341819],[71.863034,41.312208],[71.868822,41.279239],[71.868212,41.268752],[71.780024,41.268752],[71.780024,41.358582],[71.8321,41.358582],[71.847015,41.341819]]]]}},{"type":"Feature","properties":{"cell_id":"UZ-183","area_ha":7250,"country":"UZ","region":"Namangan","municipality":"Chartak"},"geometry":{"type":"MultiPolygon","coordinates":[[[[71.866342,41.236605],[71.868425,41.219956],[71.866991,41.218461],[71.862408,41.211599],[71.86046,41.207674],[71.860404,41.199928],[71.859546,41.195548],[71.860925,41.193488],[71.86222,41.193201],[71.866309,41.192506],[71.870177,41.191966],[71.871084,41.190861],[71.871045,41.187197],[71.871129,41.185424],[71.872226,41.184808],[71.873962,41.18421],[71.876748,41.183963],[71.877647,41.18302],[71.878812,41.180954],[71.879769,41.178922],[71.780024,41.178922],[71.780024,41.268752],[71.868212,41.268752],[71.866342,41.236605]]]]}},{"type":"Feature","properties":{"cell_id":"UZ-184","area_ha":10000,"country":"UZ","region":"Namangan","municipality":"Chartak"},"geometry":{"type":"MultiPolygon","coordinates":[[[[71.880237,41.177927],[71.88211,41.174428],[71.884348,41.17223],[71.888132,41.168944],[71.891032,41.16628],[71.895203,41.163811],[71.898874,41.162243],[71.898874,41.089092],[71.780024,41.089092],[71.780024,41.178922],[71.879769,41.178922],[71.880237,41.177927]]]]}},{"type":"Feature","properties":{"cell_id":"UZ-337","area_ha":2001,"country":"UZ","region":"Andizhan","municipality":"Khanabad"},"geometry":{"type":"MultiPolygon","coordinates":[[[[72.973121,40.820318],[72.977149,40.82452],[72.979007,40.826496],[72.980401,40.827979],[72.981282,40.830546],[72.984902,40.832432],[72.988098,40.832488],[72.993222,40.832213],[72.996363,40.83409],[72.997482,40.839419],[72.998801,40.842416],[73.001657,40.842466],[73.005018,40.840352],[73.00759,40.842568],[73.012549,40.845828],[73.015856,40.845551],[73.018707,40.845767],[73.021564,40.845816],[73.024006,40.845023],[73.025868,40.841546],[73.02811,40.84008],[73.030742,40.840292],[73.032665,40.842163],[73.036417,40.845545],[73.053556,40.83632],[73.087374,40.837951],[73.087374,40.819602],[72.968524,40.819602],[72.968524,40.820975],[72.973121,40.820318]]]]}},{"type":"Feature","properties":{"cell_id":"UZ-338","area_ha":6058,"country":"UZ","region":"Andizhan","municipality":"Khanabad"},"geometry":{"type":"MultiPolygon","coordinates":[[[[73.082638,40.770418],[73.075199,40.769459],[73.069692,40.770035],[73.064853,40.770288],[73.060009,40.770708],[73.05877,40.768015],[73.055551,40.765457],[73.052946,40.764411],[73.048332,40.7645],[73.044786,40.765609],[73.040635,40.76487],[73.036675,40.765137],[73.03248,40.7659],[73.024997,40.76644],[73.019725,40.766517],[73.016692,40.765129],[73.012297,40.76522],[73.008566,40.765156],[73.003997,40.763741],[72.999835,40.762983],[72.991449,40.764227],[72.983692,40.761908],[72.974195,40.756779],[72.968524,40.753707],[72.968524,40.819602],[73.087374,40.819602],[73.087374,40.770497],[73.082638,40.770418]]]]}},{"type":"Feature","properties":{"cell_id":"UZ-202","area_ha":10000,"country":"UZ","region":"Andizhan","municipality":"Altinkul"},"geometry":{"type":"MultiPolygon","coordinates":[[[[71.898874,40.909432],[72.017724,40.909432],[72.017724,40.819602],[71.898874,40.819602],[71.898874,40.909432]]]]}},{"type":"Feature","properties":{"cell_id":"UZ-203","area_ha":10000,"country":"UZ","region":"Andizhan","municipality":"Altinkul"},"geometry":{"type":"MultiPolygon","coordinates":[[[[71.898874,40.819602],[72.017724,40.819602],[72.017724,40.729772],[71.898874,40.729772],[71.898874,40.819602]]]]}},{"type":"Feature","properties":{"cell_id":"UZ-217","area_ha":10000,"country":"UZ","region":"Andizhan","municipality":"Altinkul"},"geometry":{"type":"MultiPolygon","coordinates":[[[[72.017724,40.909432],[72.136574,40.909432],[72.136574,40.819602],[72.017724,40.819602],[72.017724,40.909432]]]]}},{"type":"Feature","properties":{"cell_id":"UZ-218","area_ha":10000,"country":"UZ","region":"Andizhan","municipality":"Altinkul"},"geometry":{"type":"MultiPolygon","coordinates":[[[[72.017724,40.819602],[72.136574,40.819602],[72.136574,40.729772],[72.017724,40.729772],[72.017724,40.819602]]]]}},{"type":"Feature","properties":{"cell_id":"UZ-232","area_ha":10000,"country":"UZ","region":"Andizhan","municipality":"Altinkul"},"geometry":{"type":"MultiPolygon","coordinates":[[[[72.136574,40.909432],[72.255424,40.909432],[72.255424,40.819602],[72.136574,40.819602],[72.136574,40.909432]]]]}},{"type":"Feature","properties":{"cell_id":"UZ-185","area_ha":10000,"country":"UZ","region":"Namangan","municipality":"Uchkurgan"},"geometry":{"type":"MultiPolygon","coordinates":[[[[71.780024,41.089092],[71.898874,41.089092],[71.898874,40.999262],[71.780024,40.999262],[71.780024,41.089092]]]]}},{"type":"Feature","properties":{"cell_id":"UZ-186","area_ha":10000,"country":"UZ","region":"Namangan","municipality":"Uchkurgan"},"geometry":{"type":"MultiPolygon","coordinates":[[[[71.780024,40.999262],[71.898874,40.999262],[71.898874,40.909432],[71.780024,40.909432],[71.780024,40.999262]]]]}},{"type":"Feature","properties":{"cell_id":"UZ-199","area_ha":7382,"country":"UZ","region":"Namangan","municipality":"Uchkurgan"},"geometry":{"type":"MultiPolygon","coordinates":[[[[71.901953,41.160927],[71.907092,41.159653],[71.913758,41.158541],[71.917433,41.15751],[71.921322,41.156485],[71.927181,41.154383],[71.932803,41.152758],[71.935824,41.152032],[71.939301,41.150672],[71.943409,41.149491],[71.945973,41.149398],[71.94955,41.150461],[71.95361,41.154924],[71.956687,41.157587],[71.96136,41.158034],[71.969202,41.15824],[71.972825,41.158336],[71.981577,41.158243],[71.99077,41.157838],[71.993996,41.157277],[71.999764,41.157105],[72.005252,41.157101],[72.009316,41.155925],[72.010623,41.154326],[72.01067,41.149897],[72.011429,41.146769],[72.013676,41.144846],[72.017325,41.142608],[72.017724,41.142485],[72.017724,41.089092],[71.898874,41.089092],[71.898874,41.162243],[71.901953,41.160927]]]]}},{"type":"Feature","properties":{"cell_id":"UZ-200","area_ha":10000,"country":"UZ","region":"Namangan","municipality":"Uchkurgan"},"geometry":{"type":"MultiPolygon","coordinates":[[[[71.898874,41.089092],[72.017724,41.089092],[72.017724,40.999262],[71.898874,40.999262],[71.898874,41.089092]]]]}},{"type":"Feature","properties":{"cell_id":"UZ-201","area_ha":10000,"country":"UZ","region":"Namangan","municipality":"Uchkurgan"},"geometry":{"type":"MultiPolygon","coordinates":[[[[71.898874,40.999262],[72.017724,40.999262],[72.017724,40.909432],[71.898874,40.909432],[71.898874,40.999262]]]]}},{"type":"Feature","properties":{"cell_id":"UZ-214","area_ha":5673,"country":"UZ","region":"Namangan","municipality":"Uchkurgan"},"geometry":{"type":"MultiPolygon","coordinates":[[[[72.023581,41.140672],[72.030751,41.138992],[72.037431,41.137353],[72.045403,41.135522],[72.048058,41.134774],[72.052969,41.131868],[72.055501,41.130417],[72.058792,41.129219],[72.062853,41.126341],[72.068477,41.121235],[72.070541,41.119887],[72.072557,41.123088],[72.078265,41.1265],[72.082771,41.129181],[72.091611,41.135004],[72.095102,41.139759],[72.096488,41.143294],[72.099708,41.147225],[72.104469,41.151195],[72.108788,41.154687],[72.112163,41.155121],[72.115717,41.154977],[72.118958,41.154942],[72.123226,41.156098],[72.126938,41.157999],[72.131716,41.161618],[72.133972,41.162958],[72.136574,41.163116],[72.136574,41.089092],[72.017724,41.089092],[72.017724,41.142485],[72.023581,41.140672]]]]}},{"type":"Feature","properties":{"cell_id":"UZ-215","area_ha":10000,"country":"UZ","region":"Namangan","municipality":"Uchkurgan"},"geometry":{"type":"MultiPolygon","coordinates":[[[[72.017724,41.089092],[72.136574,41.089092],[72.136574,40.999262],[72.017724,40.999262],[72.017724,41.089092]]]]}},{"type":"Feature","properties":{"cell_id":"UZ-229","area_ha":2656,"country":"UZ","region":"Namangan","municipality":"Uchkurgan"},"geometry":{"type":"MultiPolygon","coordinates":[[[[72.137203,41.163155],[72.141271,41.161856],[72.147342,41.160606],[72.152879,41.160977],[72.157005,41.161896],[72.162318,41.163893],[72.170497,41.160245],[72.171434,41.159801],[72.174643,41.141418],[72.1764,41.112892],[72.180591,41.089092],[72.136574,41.089092],[72.136574,41.163116],[72.137203,41.163155]]]]}},{"type":"Feature","properties":{"cell_id":"UZ-231","area_ha":10000,"country":"UZ","region":"Namangan","municipality":"Uchkurgan"},"geometry":{"type":"MultiPolygon","coordinates":[[[[72.170983,40.997645],[72.176317,40.993755],[72.179607,40.991931],[72.18295,40.992119],[72.185371,40.994294],[72.187342,40.997199],[72.191654,40.997622],[72.192424,40.997707],[72.196519,40.998163],[72.200398,40.998893],[72.201888,40.999262],[72.255424,40.999262],[72.255424,40.909432],[72.136574,40.909432],[72.136574,40.999262],[72.168847,40.999262],[72.170983,40.997645]]]]}},{"type":"Feature","properties":{"cell_id":"UZ-216","area_ha":10000,"country":"UZ","region":"Andizhan","municipality":"Izboskan"},"geometry":{"type":"MultiPolygon","coordinates":[[[[72.017724,40.999262],[72.136574,40.999262],[72.136574,40.909432],[72.017724,40.909432],[72.017724,40.999262]]]]}},{"type":"Feature","properties":{"cell_id":"UZ-230","area_ha":3781,"country":"UZ","region":"Andizhan","municipality":"Izboskan"},"geometry":{"type":"MultiPolygon","coordinates":[[[[72.185599,41.060647],[72.185599,41.041062],[72.178777,41.023182],[72.172371,41.011996],[72.169173,41.013469],[72.160473,41.016405],[72.156604,41.016893],[72.152934,41.016335],[72.151426,41.015598],[72.151635,41.01432],[72.153561,41.012501],[72.15754,41.009449],[72.16199,41.006176],[72.164417,41.003435],[72.166203,41.001263],[72.166218,41.001251],[72.167881,40.999992],[72.168847,40.999262],[72.136574,40.999262],[72.136574,41.089092],[72.180591,41.089092],[72.185599,41.060647]]],[[[72.203715,40.999714],[72.208342,40.999297],[72.213608,41.000271],[72.215827,41.000642],[72.217221,41.001223],[72.22103,41.002132],[72.226506,41.003664],[72.230425,41.005625],[72.234657,41.007477],[72.238179,41.007911],[72.241581,41.007526],[72.245474,41.006453],[72.248405,41.006289],[72.251748,41.007303],[72.255424,41.008658],[72.255424,40.999262],[72.201888,40.999262],[72.203715,40.999714]]]]}},{"type":"Feature","properties":{"cell_id":"UZ-245","area_ha":4119,"country":"UZ","region":"Andizhan","municipality":"Paxtaabad"},"geometry":{"type":"MultiPolygon","coordinates":[[[[72.256145,41.008924],[72.260714,41.010083],[72.266989,41.014665],[72.273678,41.020424],[72.275964,41.022069],[72.27921,41.024405],[72.283401,41.027304],[72.287939,41.029277],[72.291533,41.03061],[72.295393,41.030351],[72.298414,41.030644],[72.300147,41.030812],[72.303695,41.030662],[72.307963,41.031695],[72.310843,41.032812],[72.314227,41.032891],[72.317593,41.033436],[72.321339,41.035974],[72.322923,41.038694],[72.323507,41.043258],[72.323832,41.046648],[72.329071,41.050387],[72.333257,41.053517],[72.339154,41.05622],[72.344111,41.059368],[72.345828,41.060341],[72.349059,41.060415],[72.351923,41.05857],[72.356931,41.052622],[72.36,41.048767],[72.361437,41.047269],[72.374274,41.032023],[72.374274,40.999262],[72.255424,40.999262],[72.255424,41.008658],[72.256145,41.008924]]]]}},{"type":"Feature","properties":{"cell_id":"UZ-246","area_ha":10000,"country":"UZ","region":"Andizhan","municipality":"Paxtaabad"},"geometry":{"type":"MultiPolygon","coordinates":[[[[72.255424,40.999262],[72.374274,40.999262],[72.374274,40.909432],[72.255424,40.909432],[72.255424,40.999262]]]]}},{"type":"Feature","properties":{"cell_id":"UZ-260","area_ha":1856,"country":"UZ","region":"Andizhan","municipality":"Paxtaabad"},"geometry":{"type":"MultiPolygon","coordinates":[[[[72.374321,41.031967],[72.395198,41.022045],[72.423517,41.01574],[72.473358,41.012063],[72.47485,41.011593],[72.477464,41.011395],[72.481911,41.008816],[72.484702,41.004682],[72.485219,40.999566],[72.485135,40.999262],[72.374274,40.999262],[72.374274,41.032023],[72.374321,41.031967]]]]}}]}